{"type":"FeatureCollection","features":[{"type":"Feature","properties":{},"geometry":{"type":"MultiLineString","coordinates":[[[-70.83661458333334,42.82046875000072],[-70.83473958333335,42.82026041666737],[-70.83390625000001,42.81942708333405],[-70.83359375,42.81723958333405],[-70.83291666666668,42.81677083333405],[-70.83375000000001,42.815937500000715],[-70.83296875,42.81526041666738],[-70.83302083333334,42.814739583334045],[-70.83458333333334,42.81427083333405],[-70.83447916666668,42.81390625000071],[-70.83322916666668,42.81359375000071],[-70.83291666666668,42.81281250000072],[-70.83390625000001,42.808906250000724],[-70.83442708333334,42.80880208333406],[-70.83510416666667,42.809583333334054],[-70.83552083333333,42.80890625000072],[-70.83697916666668,42.80859375000072],[-70.83703125000001,42.808072916667385],[-70.83625,42.807395833334056],[-70.83760416666667,42.80697916666739],[-70.83791666666667,42.80604166666739],[-70.83703125000001,42.804739583334054],[-70.83630208333334,42.804427083334055],[-70.83630208333334,42.80390625000072],[-70.83692708333334,42.80359375000073],[-70.83723958333334,42.80140625000073],[-70.83791666666667,42.800729166667395],[-70.83979166666667,42.800416666667395],[-70.84260416666666,42.80057291666739],[-70.84317708333333,42.801093750000724],[-70.84682291666667,42.801718750000724],[-70.84791666666666,42.805312500000724],[-70.84776041666666,42.80609375000073],[-70.84625,42.80760416666739],[-70.84859374999999,42.808072916667385],[-70.84953125,42.80890625000072],[-70.84987676956987,42.809424529355546]],[[-70.84987676956987,42.8166006275276],[-70.84927083333332,42.81781250000071],[-70.84822916666667,42.81786458333404],[-70.84739583333334,42.81708333333405],[-70.846875,42.81776041666738],[-70.84395833333333,42.818072916667376],[-70.84380208333333,42.8185937500007],[-70.84453125,42.81890625000071],[-70.84447916666667,42.819427083334034],[-70.84322916666667,42.81953125000071],[-70.84239583333334,42.81875000000071],[-70.84197916666668,42.819427083334034],[-70.84072916666668,42.81968750000071],[-70.83979166666667,42.82114583333404],[-70.83833333333334,42.82125000000071],[-70.83729166666667,42.821093750000706],[-70.83661458333334,42.82046875000072]],[[-70.84260416666666,43.12625000000043],[-70.84192708333333,43.127031250000435],[-70.84140625,43.127031250000435],[-70.84114583333334,43.12640625000043],[-70.83989583333334,43.1261979166671],[-70.83890625000001,43.12531250000043],[-70.8384375,43.123750000000435],[-70.83776041666667,43.12453125000044],[-70.83723958333334,43.12442708333378],[-70.83692708333334,43.12223958333377],[-70.83557291666668,43.121041666667104],[-70.83541666666667,43.12000000000044],[-70.83640625000001,43.11557291666711],[-70.83723958333334,43.11473958333377],[-70.83911458333334,43.11463541666711],[-70.84010416666666,43.11541666666711],[-70.84156250000001,43.113750000000444],[-70.84203125,43.11406250000044],[-70.84239583333334,43.11541666666711],[-70.84322916666667,43.114583333333776],[-70.8440625,43.11541666666711],[-70.84510416666666,43.114583333333776],[-70.84557291666667,43.11614583333377],[-70.84692708333333,43.11718750000044],[-70.84718749999999,43.11843750000044],[-70.84979166666666,43.119583333333765],[-70.84987676956987,43.11996629639825]],[[-70.84987676956987,43.12714209809184],[-70.84942708333332,43.127760416667094],[-70.84755208333333,43.127968750000434],[-70.84640625,43.12869791666711],[-70.84614583333334,43.128072916667094],[-70.84302083333333,43.12692708333376],[-70.84260416666666,43.12625000000043]],[[-70.21864583333391,43.561562500000036],[-70.21718750000056,43.56093750000004],[-70.21703125000057,43.55989583333337],[-70.2163020833339,43.55911458333337],[-70.21625000000057,43.55802083333337],[-70.21468750000057,43.557239583333384],[-70.20843750000057,43.55723958333337],[-70.20770833333391,43.5577604166667],[-70.20520833333391,43.55796875000004],[-70.20432291666725,43.558593750000036],[-70.20302083333391,43.55875000000004],[-70.20067708333391,43.558593750000036],[-70.20012323043012,43.558113744150084]],[[-70.20012323043012,42.80018926957119],[-70.20022266888381,42.800089831117496]],[[-70.80644399778348,42.800089831117496],[-70.80692708333336,42.8005729166674],[-70.80723958333337,42.8027604166674],[-70.8079166666667,42.80322916666739],[-70.80723958333337,42.80390625000073],[-70.80708333333337,42.805312500000724],[-70.80859375000003,42.80838541666739],[-70.80906250000004,42.814947916667386],[-70.80937500000003,42.81541666666738],[-70.81031250000004,42.81557291666738],[-70.81192708333336,42.81723958333405],[-70.81213541666669,42.81911458333404],[-70.81286458333336,42.82005208333404],[-70.81281250000004,42.82161458333404],[-70.81187500000003,42.82208333333404],[-70.81135416666669,42.82302083333404],[-70.81130208333336,42.82614583333404],[-70.81203125000003,42.827552083334034],[-70.81218750000002,42.82911458333403],[-70.81343750000002,42.82984375000071],[-70.81375000000003,42.8321875000007],[-70.81359375000002,42.833489583334035],[-70.81208333333336,42.835104166667364],[-70.81359375000002,42.83645833333403],[-70.81380208333336,42.83895833333403],[-70.81453125000003,42.84036458333402],[-70.81473958333336,42.84348958333403],[-70.81541666666669,42.84406250000069],[-70.81463541666669,42.84505208333401],[-70.81463541666669,42.846614583334016],[-70.81536458333336,42.847552083334016],[-70.8155729166667,42.849427083334014],[-70.81625000000003,42.84989583333402],[-70.81614583333337,42.850260416667346],[-70.81458333333336,42.85072916666736],[-70.81541666666669,42.85218750000068],[-70.81526041666669,42.853593750000684],[-70.81458333333336,42.85427083333401],[-70.81593750000002,42.854791666667346],[-70.81625000000003,42.85583333333402],[-70.81609375000002,42.85770833333401],[-70.81473958333336,42.859010416667346],[-70.81458333333336,42.860312500000674],[-70.81473958333336,42.862656250000676],[-70.81541666666669,42.86322916666734],[-70.81473958333336,42.86401041666735],[-70.81458333333336,42.86531250000067],[-70.81473958333336,42.86765625000067],[-70.81541666666669,42.868229166667334],[-70.81473958333336,42.868958333334],[-70.81458333333336,42.870000000000665],[-70.81473958333336,42.871875000000664],[-70.81541666666669,42.872708333333996],[-70.81458333333336,42.87468750000066],[-70.81473958333336,42.87609375000066],[-70.81536458333336,42.87671875000066],[-70.81536458333336,42.878281250000654],[-70.81473958333336,42.87901041666733],[-70.81453125000003,42.88213541666732],[-70.81380208333336,42.883385416667316],[-70.81359375000002,42.885260416667315],[-70.8130729166667,42.885520833333985],[-70.81286458333336,42.88677083333398],[-70.81213541666669,42.88739583333399],[-70.81213541666669,42.88843750000065],[-70.81286458333336,42.888906250000645],[-70.81286458333336,42.88942708333397],[-70.81223958333337,42.88968750000065],[-70.81192708333336,42.89114583333398],[-70.8104166666667,42.89239583333398],[-70.81052083333336,42.89276041666731],[-70.8119791666667,42.89322916666731],[-70.81203125000003,42.894270833333984],[-70.81140625000003,42.89468750000064],[-70.81114583333337,42.89593750000065],[-70.80989583333337,42.89640625000064],[-70.80942708333336,42.89859375000064],[-70.80880208333336,42.89906250000064],[-70.80880208333336,42.900104166667305],[-70.80942708333336,42.90078125000064],[-70.80958333333336,42.904062500000634],[-70.80942708333336,42.9058854166673],[-70.80875000000003,42.906770833333965],[-70.80958333333336,42.9076041666673],[-70.80875000000003,42.90843750000063],[-70.80942708333336,42.9088541666673],[-70.80958333333336,42.909791666667296],[-70.80880208333336,42.91088541666729],[-70.80859375000003,42.9127604166673],[-70.80697916666671,42.914427083333955],[-70.80552083333336,42.914739583333954],[-70.80447916666671,42.91609375000062],[-70.80322916666671,42.91630208333396],[-70.8029166666667,42.916770833333956],[-70.79291666666671,42.917395833333956],[-70.7938541666667,42.91859375000062],[-70.79531250000005,42.91906250000062],[-70.79552083333337,42.92010416666729],[-70.79645833333338,42.920416666667286],[-70.79677083333337,42.920989583333956],[-70.79697916666672,42.92213541666728],[-70.79692708333337,42.92901041666728],[-70.79640625000005,42.92979166666728],[-70.79619791666671,42.932291666667275],[-70.79546875000004,42.93338541666727],[-70.79536458333338,42.93494791666727],[-70.79463541666671,42.93588541666727],[-70.79442708333337,42.937760416667274],[-70.79223958333338,42.9396875000006],[-70.79203125000005,42.9409375000006],[-70.79114583333339,42.94192708333393],[-70.78989583333339,42.94213541666727],[-70.78932291666672,42.94276041666726],[-70.78619791666672,42.94302083333393],[-70.78541666666672,42.943541666667265],[-70.78458333333339,42.9456250000006],[-70.7848958333334,42.94614583333393],[-70.78614583333339,42.946562500000596],[-70.78619791666672,42.94760416666726],[-70.78473958333339,42.94885416666725],[-70.78453125000006,42.95010416666726],[-70.78390625000006,42.95052083333392],[-70.78343750000005,42.95197916666726],[-70.78218750000005,42.95223958333392],[-70.77854166666673,42.95609375000059],[-70.77562500000006,42.95640625000058],[-70.7747395833334,42.957187500000586],[-70.77442708333339,42.958437500000585],[-70.7722395833334,42.95890625000058],[-70.77140625000007,42.95973958333392],[-70.77093750000006,42.96192708333392],[-70.76989583333341,42.96218750000058],[-70.7691145833334,42.96364583333391],[-70.7670833333334,42.96406250000058],[-70.76718750000006,42.96442708333391],[-70.76864583333341,42.96489583333391],[-70.7688020833334,42.96593750000057],[-70.76953125000007,42.966718750000574],[-70.76953125000007,42.96828125000057],[-70.7688020833334,42.96921875000057],[-70.76859375000006,42.97109375000058],[-70.76765625000007,42.9719270833339],[-70.76401041666674,42.972239583333895],[-70.76364583333341,42.972760416667235],[-70.76208333333341,42.97322916666724],[-70.76359375000007,42.97468750000057],[-70.76369791666674,42.97593750000057],[-70.76223958333341,42.9773958333339],[-70.76203125000008,42.9811458333339],[-70.7613020833334,42.9825520833339],[-70.76119791666675,42.98411458333389],[-70.76046875000007,42.984895833333894],[-70.76026041666674,42.98614583333389],[-70.75890625000008,42.98718750000056],[-70.75859375000007,42.98864583333389],[-70.75562500000008,42.99119791666723],[-70.75354166666675,42.99119791666723],[-70.75229166666675,42.99046875000056],[-70.74979166666675,42.99057291666722],[-70.74776041666675,42.99286458333388],[-70.74713541666675,42.99307291666722],[-70.74713541666675,42.99359375000054],[-70.74791666666675,42.994270833333886],[-70.74723958333342,42.99473958333389],[-70.74692708333342,42.99692708333389],[-70.74546875000009,42.99807291666721],[-70.74619791666676,42.99942708333388],[-70.74557291666676,42.99963541666722],[-70.74427083333342,43.001250000000546],[-70.7428125000001,43.00041666666721],[-70.74171875000009,43.00052083333388],[-70.7412500000001,43.00104166666721],[-70.7420312500001,43.002708333333885],[-70.74223958333343,43.00520833333387],[-70.74291666666676,43.0060416666672],[-70.74197916666677,43.00843750000054],[-70.74052083333342,43.008906250000535],[-70.73911458333343,43.01114583333386],[-70.73723958333343,43.01140625000053],[-70.73645833333343,43.01203125000054],[-70.73395833333343,43.012239583333866],[-70.73307291666677,43.013072916667205],[-70.73276041666676,43.0152604166672],[-70.73197916666678,43.01609375000053],[-70.73052083333343,43.01640625000053],[-70.72958333333344,43.017395833333865],[-70.7309375000001,43.01817708333387],[-70.7312500000001,43.020520833333855],[-70.7310937500001,43.0218229166672],[-70.72973958333344,43.023072916667196],[-70.72942708333343,43.025260416667194],[-70.72781250000011,43.02692708333386],[-70.72656250000011,43.02713541666719],[-70.72578125000011,43.02786458333385],[-70.72390625000011,43.028072916667185],[-70.72281250000012,43.02942708333384],[-70.72135416666677,43.02973958333385],[-70.71994791666678,43.031979166667185],[-70.71807291666678,43.03223958333385],[-70.71723958333345,43.032968750000514],[-70.71640625000012,43.03390625000053],[-70.71609375000011,43.03609375000052],[-70.71447916666679,43.037760416667176],[-70.71354166666679,43.03791666666718],[-70.71302083333345,43.038541666667186],[-70.71276041666678,43.04104166666717],[-70.71208333333345,43.04156250000051],[-70.71291666666679,43.042604166667175],[-70.71041666666679,43.043229166667174],[-70.71109375000012,43.043854166667174],[-70.71130208333345,43.04510416666717],[-70.71192708333345,43.04552083333384],[-70.71234375000012,43.04677083333384],[-70.71468750000011,43.047083333333845],[-70.71598958333345,43.04786458333383],[-70.71640625000012,43.050989583333845],[-70.71708333333345,43.0515625000005],[-70.71640625000012,43.05223958333384],[-70.71609375000011,43.05442708333384],[-70.71526041666678,43.05526041666716],[-70.71338541666678,43.055364583333834],[-70.71239583333346,43.05458333333383],[-70.71140625000012,43.055625000000504],[-70.71135416666678,43.05812500000049],[-70.71291666666679,43.05927083333383],[-70.71125000000012,43.06093750000049],[-70.71260416666678,43.06135416666716],[-70.71291666666679,43.06229166666716],[-70.71260416666678,43.06281250000049],[-70.71125000000012,43.06322916666715],[-70.71208333333345,43.06406250000048],[-70.71125000000012,43.06489583333382],[-70.71192708333345,43.06562500000049],[-70.71208333333345,43.066666666667146],[-70.71203125000012,43.068125000000485],[-70.71130208333345,43.069062500000484],[-70.71130208333345,43.07010416666716],[-70.71218750000011,43.07109375000048],[-70.71364583333346,43.07140625000048],[-70.71484375000011,43.072760416667144],[-70.71796875000011,43.07286458333382],[-70.71979166666678,43.072083333333815],[-70.72088541666677,43.07286458333382],[-70.72276041666677,43.07307291666715],[-70.7235937500001,43.07390625000048],[-70.72369791666678,43.075781250000475],[-70.72291666666678,43.07677083333381],[-70.72427083333343,43.07718750000048],[-70.72458333333344,43.078125000000476],[-70.72307291666678,43.07973958333381],[-70.72276041666677,43.08161458333381],[-70.72057291666678,43.0822395833338],[-70.71979166666678,43.08286458333381],[-70.71770833333345,43.08281250000047],[-70.71677083333344,43.08135416666714],[-70.71552083333344,43.08109375000047],[-70.71473958333345,43.08031250000047],[-70.71453125000012,43.079062500000475],[-70.71406250000013,43.078750000000475],[-70.71354166666679,43.079427083333805],[-70.71062500000012,43.07989583333381],[-70.70979166666679,43.0811458333338],[-70.70729166666679,43.08140625000047],[-70.70677083333345,43.082031250000476],[-70.70552083333345,43.0822395833338],[-70.70510416666679,43.082916666667145],[-70.70442708333346,43.0822395833338],[-70.70223958333347,43.0819270833338],[-70.70140625000013,43.08109375000048],[-70.7011979166668,43.07921875000047],[-70.70046875000013,43.078437500000476],[-70.7002604166668,43.07718750000048],[-70.69880208333346,43.07593750000048],[-70.69880208333346,43.07489583333381],[-70.69953125000013,43.07442708333381],[-70.69953125000013,43.07390625000048],[-70.69640625000014,43.07197916666715],[-70.69630208333346,43.07072916666715],[-70.69703125000014,43.070260416667146],[-70.69703125000014,43.06973958333381],[-70.6955729166668,43.06864583333382],[-70.6952604166668,43.067187500000486],[-70.69380208333347,43.06552083333382],[-70.69067708333347,43.06526041666715],[-70.6896354166668,43.064635416667166],[-70.68703125000015,43.064635416667166],[-70.68557291666681,43.0654687500005],[-70.68531250000015,43.06609375000048],[-70.68406250000015,43.06630208333382],[-70.68328125000015,43.06703125000049],[-70.68171875000014,43.06703125000049],[-70.68072916666682,43.06625000000049],[-70.68015625000015,43.066927083333816],[-70.67651041666682,43.067239583333816],[-70.67437500000015,43.069427083333814],[-70.67145833333349,43.06973958333381],[-70.67046875000015,43.070572916667146],[-70.67046875000015,43.07109375000048],[-70.67125000000016,43.07177083333381],[-70.67041666666682,43.07260416666714],[-70.6677083333335,43.073020833333814],[-70.66677083333349,43.074479166667146],[-70.66375000000016,43.075729166667145],[-70.6645833333335,43.07718750000048],[-70.66442708333349,43.07859375000048],[-70.66375000000016,43.079062500000475],[-70.66453125000017,43.080364583333804],[-70.66442708333349,43.08348958333381],[-70.6636458333335,43.0844270833338],[-70.66218750000016,43.0847395833338],[-70.66177083333349,43.085364583333806],[-70.66072916666684,43.085364583333806],[-70.65979166666683,43.084583333333796],[-70.65875000000017,43.0848958333338],[-70.66026041666683,43.08635416666714],[-70.6603645833335,43.087604166667134],[-70.6597395833335,43.08807291666714],[-70.6594270833335,43.09026041666714],[-70.65812500000017,43.091250000000464],[-70.65640625000017,43.0905208333338],[-70.65619791666684,43.0917708333338],[-70.65546875000017,43.092395833333796],[-70.65526041666683,43.093645833333795],[-70.65473958333351,43.093906250000465],[-70.65463541666684,43.09578125000046],[-70.65541666666684,43.09677083333379],[-70.6545833333335,43.097604166667125],[-70.65536458333351,43.09822916666712],[-70.65531250000018,43.09927083333379],[-70.65385416666683,43.099739583333786],[-70.65281250000018,43.10109375000045],[-70.64968750000017,43.102239583333784],[-70.64864583333352,43.10359375000045],[-70.64718750000017,43.10390625000045],[-70.64630208333351,43.104895833333785],[-70.64609375000018,43.106145833333784],[-70.64473958333352,43.10718750000045],[-70.64447916666686,43.10843750000045],[-70.64302083333351,43.10890625000045],[-70.64192708333351,43.110364583333784],[-70.64130208333351,43.1105729166671],[-70.64130208333351,43.11109375000044],[-70.64203125000019,43.111406250000435],[-70.64192708333351,43.111927083333775],[-70.63973958333352,43.11223958333377],[-70.63927083333351,43.11291666666711],[-70.63822916666686,43.11208333333378],[-70.63723958333352,43.11302083333378],[-70.63703125000019,43.11427083333378],[-70.63625000000019,43.115208333333776],[-70.63640625000019,43.11614583333377],[-70.63703125000019,43.11656250000044],[-70.63692708333352,43.11781250000044],[-70.63593750000018,43.11869791666711],[-70.63468750000018,43.118906250000435],[-70.63291666666686,43.120729166667104],[-70.63359375000019,43.12145833333377],[-70.63375000000019,43.12333333333377],[-70.63343750000018,43.124375000000434],[-70.63218750000019,43.12489583333377],[-70.63213541666686,43.12593750000043],[-70.63276041666686,43.1263541666671],[-70.63302083333352,43.1276041666671],[-70.63427083333352,43.1280729166671],[-70.63458333333352,43.1288541666671],[-70.63343750000018,43.1327604166671],[-70.63145833333353,43.133593750000415],[-70.62395833333353,43.13390625000043],[-70.62208333333353,43.134687500000425],[-70.62192708333353,43.13609375000043],[-70.6212500000002,43.13687500000042],[-70.6214062500002,43.13781250000042],[-70.62208333333353,43.13843750000043],[-70.6214062500002,43.13885416666709],[-70.6212500000002,43.13979166666709],[-70.62156250000021,43.14031250000042],[-70.62260416666686,43.14057291666708],[-70.62302083333353,43.14244791666708],[-70.62427083333353,43.14322916666708],[-70.62473958333354,43.14760416666708],[-70.62541666666687,43.14843750000041],[-70.62307291666687,43.15062500000041],[-70.62276041666686,43.153541666667074],[-70.62213541666686,43.15406250000041],[-70.62192708333353,43.155312500000406],[-70.61973958333354,43.15729166666707],[-70.61953125000021,43.159791666667076],[-70.61880208333353,43.16072916666707],[-70.6185937500002,43.16197916666707],[-70.61781250000021,43.16276041666706],[-70.61635416666687,43.163229166667065],[-70.6160937500002,43.164479166667064],[-70.61380208333354,43.16640625000039],[-70.6135937500002,43.16703125000039],[-70.61307291666688,43.16703125000039],[-70.61239583333355,43.166250000000396],[-70.61182291666688,43.16760416666706],[-70.61052083333354,43.16791666666706],[-70.60817708333354,43.16776041666705],[-70.60697916666689,43.167135416667065],[-70.60322916666689,43.16692708333372],[-70.60260416666688,43.16630208333373],[-70.60135416666688,43.1660937500004],[-70.60026041666688,43.16473958333373],[-70.59838541666689,43.16453125000041],[-70.59760416666688,43.163906250000394],[-70.59385416666689,43.163802083333735],[-70.59223958333357,43.1646875000004],[-70.59213541666689,43.165937500000396],[-70.59276041666689,43.1664062500004],[-70.5930729166669,43.1685937500004],[-70.59375000000023,43.16906250000039],[-70.59296875000022,43.16973958333372],[-70.59302083333355,43.170260416667055],[-70.59427083333355,43.170520833333725],[-70.59505208333356,43.17197916666706],[-70.59692708333355,43.172395833333724],[-70.59734375000022,43.1734375000004],[-70.60125000000022,43.17406250000039],[-70.60192708333355,43.17473958333372],[-70.60213541666688,43.176614583333716],[-70.60276041666688,43.17729166666705],[-70.60281250000023,43.17979166666705],[-70.60156250000023,43.18072916666705],[-70.60109375000022,43.185104166667045],[-70.60036458333356,43.186093750000374],[-70.59927083333355,43.18708333333372],[-70.59828125000023,43.186302083333715],[-70.59640625000023,43.186406250000374],[-70.59442708333356,43.188697916667046],[-70.59380208333356,43.18890625000037],[-70.59380208333356,43.189427083333705],[-70.59453125000023,43.18989583333371],[-70.5944791666669,43.19093750000037],[-70.59302083333355,43.19140625000037],[-70.59109375000023,43.19359375000037],[-70.58890625000024,43.19406250000037],[-70.58859375000023,43.19531250000037],[-70.5879166666669,43.195729166667036],[-70.5886979166669,43.196718750000365],[-70.58864583333357,43.19828125000036],[-70.58718750000023,43.19890625000036],[-70.58625000000023,43.199895833333706],[-70.5877604166669,43.2014583333337],[-70.5879166666669,43.20250000000036],[-70.5877604166669,43.20437500000036],[-70.58625000000023,43.20572916666703],[-70.58703125000024,43.206718750000356],[-70.58692708333356,43.20859375000036],[-70.58614583333357,43.209427083333686],[-70.58468750000023,43.209739583333686],[-70.58281250000024,43.211927083333684],[-70.5813541666669,43.21223958333369],[-70.58057291666691,43.21302083333369],[-70.5801041666669,43.21447916666702],[-70.5788541666669,43.214739583333674],[-70.57692708333357,43.21703125000035],[-70.57630208333357,43.21723958333368],[-70.57630208333357,43.21776041666701],[-70.57708333333358,43.21843750000035],[-70.57557291666691,43.219739583333684],[-70.57541666666691,43.22052083333368],[-70.57557291666691,43.22192708333368],[-70.57692708333357,43.22302083333368],[-70.57723958333358,43.22447916666701],[-70.58036458333358,43.22640625000034],[-70.58036458333358,43.22692708333367],[-70.57958333333357,43.22760416666701],[-70.58119791666691,43.228906250000335],[-70.58046875000024,43.230260416667],[-70.58109375000024,43.23046875000034],[-70.5813541666669,43.23109375000033],[-70.5826041666669,43.231354166667],[-70.5833854166669,43.232812500000335],[-70.5852604166669,43.233072916667],[-70.58552083333356,43.23359375000033],[-70.58697916666691,43.23421875000033],[-70.58703125000024,43.23578125000033],[-70.58625000000023,43.236770833333665],[-70.58760416666689,43.23723958333367],[-70.5879166666669,43.238020833333664],[-70.5877604166669,43.239427083333666],[-70.5871354166669,43.24005208333366],[-70.58723958333357,43.241927083333664],[-70.5877604166669,43.24223958333367],[-70.5882291666669,43.24442708333366],[-70.58927083333356,43.24453125000033],[-70.59010416666689,43.243750000000325],[-70.5907291666669,43.247656250000325],[-70.59208333333356,43.248541666666995],[-70.5919791666669,43.249270833333654],[-70.5907291666669,43.24968750000032],[-70.5902604166669,43.25114583333366],[-70.58958333333356,43.25156250000032],[-70.59125000000023,43.25427083333365],[-70.58973958333357,43.25552083333365],[-70.58927083333356,43.25697916666698],[-70.5879166666669,43.257395833333646],[-70.58802083333356,43.257760416666976],[-70.58958333333356,43.25822916666698],[-70.58890625000024,43.258906250000315],[-70.58859375000023,43.26109375000031],[-70.58781250000024,43.26192708333364],[-70.58656250000024,43.262239583333645],[-70.58609375000023,43.26442708333365],[-70.58380208333357,43.2664062500003],[-70.58380208333357,43.266927083333634],[-70.58453125000024,43.267552083333634],[-70.58447916666691,43.26911458333363],[-70.58223958333357,43.270520833333634],[-70.5821354166669,43.27177083333363],[-70.5829166666669,43.272604166666966],[-70.58140625000024,43.273854166666965],[-70.58109375000024,43.2753125000003],[-70.57723958333358,43.278906250000304],[-70.57677083333357,43.28125000000029],[-70.57572916666692,43.28041666666696],[-70.57526041666691,43.28197916666696],[-70.57447916666692,43.28276041666695],[-70.57322916666692,43.28296875000029],[-70.57244791666692,43.28369791666696],[-70.57057291666692,43.28390625000029],[-70.56973958333359,43.284843750000285],[-70.56942708333358,43.28848958333362],[-70.56875000000025,43.289062500000284],[-70.56953125000025,43.29005208333361],[-70.56942708333358,43.29161458333362],[-70.56723958333359,43.29223958333361],[-70.56630208333358,43.29322916666695],[-70.56635416666691,43.29427083333361],[-70.56791666666692,43.29489583333361],[-70.56723958333359,43.295677083333615],[-70.56692708333358,43.299322916666945],[-70.56473958333359,43.30135416666694],[-70.56453125000026,43.30260416666694],[-70.56390625000026,43.303125000000264],[-70.56359375000025,43.306041666666935],[-70.56208333333359,43.307395833333594],[-70.56286458333359,43.30807291666693],[-70.56286458333359,43.30859375000026],[-70.5622395833336,43.30885416666693],[-70.56197916666693,43.31010416666693],[-70.56072916666693,43.3105208333336],[-70.56026041666692,43.31197916666693],[-70.55963541666692,43.31223958333359],[-70.5603645833336,43.31359375000026],[-70.55843750000025,43.3153645833336],[-70.5573958333336,43.3153645833336],[-70.55692708333359,43.31463541666693],[-70.55640625000026,43.31468750000026],[-70.55609375000026,43.31614583333359],[-70.55541666666693,43.31656250000026],[-70.55625000000026,43.317604166666925],[-70.55421875000026,43.31807291666693],[-70.55343750000026,43.320260416666926],[-70.5520833333336,43.32072916666692],[-70.5528645833336,43.321406250000244],[-70.5528645833336,43.321927083333584],[-70.5522395833336,43.322135416666924],[-70.55197916666694,43.32276041666692],[-70.55072916666694,43.32302083333359],[-70.55010416666693,43.324583333333585],[-70.54906250000028,43.32375000000025],[-70.54781250000028,43.325260416666914],[-70.54635416666693,43.325572916666914],[-70.54546875000027,43.32656250000025],[-70.54526041666693,43.32781250000025],[-70.5413020833336,43.33140625000024],[-70.54109375000027,43.33203125000025],[-70.54046875000027,43.332239583333575],[-70.54026041666694,43.33286458333358],[-70.53963541666694,43.33307291666691],[-70.5394270833336,43.333697916666914],[-70.53890625000028,43.333697916666914],[-70.53822916666695,43.33291666666691],[-70.53713541666694,43.33390625000024],[-70.53713541666694,43.33442708333357],[-70.53791666666694,43.33510416666691],[-70.53692708333361,43.33609375000024],[-70.53505208333361,43.33619791666691],[-70.53406250000029,43.33541666666691],[-70.53364583333362,43.336770833333574],[-70.53218750000028,43.33723958333357],[-70.53182291666695,43.3377604166669],[-70.52817708333362,43.3380729166669],[-70.52723958333362,43.338854166666906],[-70.52697916666696,43.340104166666904],[-70.52552083333362,43.3405729166669],[-70.52427083333362,43.34208333333357],[-70.52359375000029,43.34140625000023],[-70.52218750000029,43.34125000000024],[-70.5214062500003,43.34156250000023],[-70.52093750000029,43.3429166666669],[-70.51947916666697,43.34208333333357],[-70.51666666666696,43.3429166666669],[-70.51479166666697,43.34276041666689],[-70.51427083333363,43.34208333333357],[-70.51338541666696,43.34276041666689],[-70.50901041666697,43.34286458333357],[-70.50791666666697,43.3426041666669],[-70.50869791666697,43.34192708333356],[-70.50864583333365,43.34140625000023],[-70.50739583333365,43.3411979166669],[-70.5068750000003,43.3405729166669],[-70.50437500000031,43.34052083333357],[-70.5035937500003,43.34177083333357],[-70.5021875000003,43.34208333333357],[-70.50140625000031,43.34192708333356],[-70.49989583333365,43.340416666666904],[-70.49890625000032,43.3413541666669],[-70.49864583333365,43.3426041666669],[-70.49718750000031,43.3430729166669],[-70.49677083333364,43.343697916666905],[-70.49572916666699,43.343697916666905],[-70.49489583333366,43.3429166666669],[-70.49359375000031,43.344427083333564],[-70.49171875000032,43.3446354166669],[-70.49104166666699,43.345260416666896],[-70.49000000000032,43.3454166666669],[-70.48812500000032,43.345260416666896],[-70.48692708333365,43.34390625000023],[-70.48552083333365,43.343750000000234],[-70.48473958333366,43.344062500000234],[-70.48442708333366,43.34531250000023],[-70.48343750000032,43.3461979166669],[-70.48239583333367,43.34630208333356],[-70.48171875000033,43.34692708333356],[-70.47661458333367,43.34723958333356],[-70.47572916666701,43.3479166666669],[-70.47531250000034,43.34723958333356],[-70.473854166667,43.34692708333356],[-70.47307291666701,43.346093750000236],[-70.472760416667,43.34390625000024],[-70.47223958333367,43.34364583333357],[-70.47203125000034,43.34239583333356],[-70.47109375000034,43.341302083333574],[-70.47057291666701,43.341302083333574],[-70.46989583333368,43.34208333333357],[-70.46947916666701,43.34140625000023],[-70.46822916666702,43.3411979166669],[-70.46781250000035,43.3405729166669],[-70.46520833333368,43.33958333333357],[-70.46364583333369,43.34192708333356],[-70.46239583333369,43.34213541666691],[-70.46161458333368,43.34286458333357],[-70.45973958333369,43.34276041666689],[-70.45859375000035,43.341302083333574],[-70.45807291666702,43.3413541666669],[-70.45776041666701,43.342812500000235],[-70.45708333333369,43.3432291666669],[-70.45786458333369,43.344062500000234],[-70.45760416666701,43.34531250000023],[-70.45656250000036,43.34546875000023],[-70.45593750000035,43.34609375000023],[-70.45125000000036,43.34656250000023],[-70.44890625000036,43.3488541666669],[-70.44859375000036,43.35031250000023],[-70.44796875000036,43.35057291666689],[-70.44796875000036,43.351093750000224],[-70.44875000000036,43.35177083333356],[-70.44671875000036,43.3521354166669],[-70.44593750000035,43.35286458333356],[-70.4448958333337,43.35302083333356],[-70.44447916666704,43.35427083333356],[-70.44302083333369,43.35473958333355],[-70.4427083333337,43.35526041666689],[-70.4402083333337,43.35531250000023],[-70.43906250000038,43.353750000000225],[-70.43864583333371,43.354427083333555],[-70.43739583333371,43.354687500000225],[-70.4370833333337,43.355625000000224],[-70.4363020833337,43.356145833333564],[-70.43369791666704,43.356145833333564],[-70.43291666666704,43.355625000000224],[-70.43260416666703,43.354687500000225],[-70.43187500000037,43.35458333333356],[-70.43135416666703,43.35489583333356],[-70.43109375000037,43.35593750000022],[-70.42968750000037,43.35625000000022],[-70.42890625000038,43.35593750000022],[-70.42843750000037,43.354687500000225],[-70.42770833333371,43.35458333333356],[-70.42718750000037,43.355052083333554],[-70.42692708333371,43.35692708333356],[-70.42609375000038,43.35786458333356],[-70.42557291666705,43.35786458333356],[-70.42494791666705,43.35713541666689],[-70.42338541666705,43.35718750000022],[-70.42291666666705,43.357708333333555],[-70.42296875000038,43.35843750000022],[-70.42375000000038,43.359270833333554],[-70.42062500000038,43.35989583333355],[-70.42031250000039,43.36093750000022],[-70.41885416666705,43.361406250000215],[-70.41859375000038,43.36203125000022],[-70.41807291666706,43.36203125000022],[-70.41692708333372,43.36057291666688],[-70.41505208333372,43.36057291666689],[-70.41458333333372,43.361354166666885],[-70.41473958333373,43.36276041666689],[-70.41552083333372,43.36359375000021],[-70.41697916666706,43.36390625000021],[-70.41786458333372,43.36489583333355],[-70.41786458333372,43.365937500000214],[-70.41713541666705,43.366562500000214],[-70.41723958333372,43.36781250000021],[-70.41776041666705,43.36786458333355],[-70.41822916666706,43.36708333333355],[-70.41869791666706,43.367395833333546],[-70.41864583333373,43.36843750000021],[-70.41718750000038,43.36937500000021],[-70.41723958333372,43.371458333333536],[-70.41802083333371,43.37208333333354],[-70.41942708333372,43.37223958333354],[-70.42057291666706,43.37359375000021],[-70.42244791666705,43.37390625000021],[-70.42307291666705,43.37609375000021],[-70.42369791666705,43.3765625000002],[-70.42359375000038,43.3778125000002],[-70.42213541666705,43.3790625000002],[-70.42218750000038,43.38010416666687],[-70.42343750000038,43.380520833333534],[-70.42375000000038,43.38145833333353],[-70.42296875000038,43.38255208333353],[-70.42276041666705,43.384427083333534],[-70.42197916666706,43.38526041666686],[-70.42072916666706,43.3854687500002],[-70.41979166666705,43.386250000000196],[-70.41885416666705,43.38609375000019],[-70.41843750000038,43.3854687500002],[-70.41739583333373,43.38552083333353],[-70.41677083333371,43.38708333333353],[-70.41593750000038,43.38630208333353],[-70.41489583333373,43.38635416666686],[-70.41468750000038,43.38760416666686],[-70.41593750000038,43.38802083333353],[-70.41625000000039,43.38854166666685],[-70.41609375000039,43.38947916666686],[-70.41546875000039,43.39005208333352],[-70.41526041666705,43.39192708333353],[-70.41442708333372,43.39276041666685],[-70.41223958333373,43.39307291666685],[-70.41177083333372,43.39369791666686],[-70.41072916666707,43.39369791666686],[-70.41010416666705,43.39296875000019],[-70.4090625000004,43.39302083333352],[-70.40885416666706,43.39427083333352],[-70.4103125000004,43.39505208333352],[-70.41026041666706,43.39692708333352],[-70.40776041666706,43.399427083333514],[-70.40588541666706,43.399635416666854],[-70.40510416666706,43.400260416666846],[-70.40041666666707,43.40010416666685],[-70.39958333333374,43.39895833333352],[-70.39973958333374,43.39802083333352],[-70.40041666666707,43.39739583333352],[-70.3987500000004,43.39677083333352],[-70.39953125000041,43.39578125000019],[-70.39947916666708,43.394218750000185],[-70.39802083333373,43.393593750000186],[-70.39760416666707,43.39296875000019],[-70.39656250000041,43.39307291666686],[-70.39630208333374,43.39494791666686],[-70.39708333333374,43.39593750000019],[-70.3954687500004,43.397239583333516],[-70.39526041666707,43.39786458333352],[-70.39473958333375,43.39786458333352],[-70.39406250000042,43.39708333333351],[-70.39364583333375,43.39776041666685],[-70.39239583333375,43.39796875000019],[-70.39197916666708,43.39859375000018],[-70.39072916666709,43.39880208333352],[-70.38989583333375,43.39958333333352],[-70.38911458333375,43.405052083333516],[-70.38708333333375,43.405729166666845],[-70.38791666666708,43.40677083333351],[-70.38458333333375,43.40739583333352],[-70.38526041666708,43.40802083333351],[-70.38541666666708,43.40895833333351],[-70.38432291666709,43.410260416666844],[-70.38067708333375,43.41057291666684],[-70.37963541666709,43.41140625000017],[-70.37963541666709,43.411927083333495],[-70.38041666666709,43.41260416666684],[-70.3794791666671,43.41359375000017],[-70.37802083333375,43.41421875000017],[-70.37796875000042,43.415781250000165],[-70.3786979166671,43.416718750000165],[-70.3786979166671,43.41828125000016],[-70.37630208333375,43.42072916666683],[-70.37630208333375,43.4217708333335],[-70.37708333333376,43.42260416666683],[-70.37625000000043,43.42343750000016],[-70.37708333333376,43.424270833333495],[-70.37640625000043,43.42468750000016],[-70.3761979166671,43.42593750000016],[-70.3755729166671,43.42640625000016],[-70.37510416666709,43.42859375000016],[-70.37385416666709,43.42906250000016],[-70.37359375000042,43.430312500000156],[-70.37114583333377,43.43276041666682],[-70.3682291666671,43.433854166666826],[-70.36760416666709,43.43531250000015],[-70.36489583333378,43.43635416666681],[-70.36411458333377,43.43781250000015],[-70.36223958333377,43.43807291666681],[-70.36177083333376,43.43875000000015],[-70.36072916666711,43.437916666666816],[-70.3602604166671,43.43927083333348],[-70.35947916666711,43.43958333333348],[-70.35807291666711,43.43942708333348],[-70.3576041666671,43.43875000000015],[-70.35692708333377,43.43942708333348],[-70.35473958333378,43.43973958333348],[-70.35427083333377,43.44041666666681],[-70.35322916666712,43.43958333333348],[-70.35276041666711,43.44026041666681],[-70.35057291666712,43.44057291666681],[-70.34927083333378,43.44208333333348],[-70.34843750000044,43.44140625000014],[-70.34406250000046,43.440937500000146],[-70.34343750000045,43.43958333333348],[-70.34145833333379,43.441197916666816],[-70.33937500000046,43.441197916666816],[-70.33843750000045,43.44046875000015],[-70.33718750000045,43.44057291666681],[-70.33713541666712,43.44109375000014],[-70.3378645833338,43.44171875000014],[-70.33791666666713,43.442812500000144],[-70.33713541666712,43.44421875000014],[-70.33692708333379,43.44578125000014],[-70.3347395833338,43.44640625000014],[-70.33375000000046,43.447395833333466],[-70.33385416666712,43.447760416666796],[-70.33531250000047,43.448229166666806],[-70.33546875000046,43.44927083333347],[-70.33619791666713,43.45005208333347],[-70.33619791666713,43.451614583333466],[-70.33546875000046,43.452552083333465],[-70.33526041666713,43.45442708333347],[-70.33416666666713,43.455260416666796],[-70.32791666666714,43.4557291666668],[-70.32713541666713,43.45656250000013],[-70.3270833333338,43.4572916666668],[-70.3275520833338,43.4576041666668],[-70.3331770833338,43.45786458333347],[-70.33692708333379,43.45692708333346],[-70.33807291666713,43.455572916666796],[-70.34026041666712,43.4549479166668],[-70.34151041666712,43.4508854166668],[-70.34515625000046,43.4502604166668],[-70.34677083333378,43.44875000000014],[-70.34723958333379,43.44942708333347],[-70.34942708333378,43.44973958333347],[-70.35026041666711,43.450572916666815],[-70.35125000000045,43.4544791666668],[-70.35109375000044,43.4552604166668],[-70.34958333333378,43.456770833333465],[-70.35296875000044,43.4569791666668],[-70.35375000000045,43.456458333333465],[-70.35406250000045,43.455520833333466],[-70.3551041666671,43.45536458333347],[-70.35604166666711,43.45458333333347],[-70.35697916666712,43.45473958333346],[-70.35739583333378,43.4554166666668],[-70.35802083333377,43.45473958333346],[-70.35895833333377,43.45458333333347],[-70.35947916666711,43.45489583333347],[-70.35989583333378,43.456145833333466],[-70.36093750000043,43.4561979166668],[-70.36119791666711,43.455572916666796],[-70.3604166666671,43.45489583333347],[-70.36250000000044,43.45458333333347],[-70.3635416666671,43.45473958333346],[-70.36468750000043,43.45609375000013],[-70.36593750000043,43.4563541666668],[-70.36640625000044,43.45781250000013],[-70.36739583333377,43.4586979166668],[-70.36864583333377,43.45890625000012],[-70.36906250000044,43.45953125000013],[-70.3704166666671,43.45927083333346],[-70.3696354166671,43.45859375000013],[-70.36973958333377,43.4580729166668],[-70.37192708333376,43.4580729166668],[-70.3730729166671,43.45942708333346],[-70.37526041666709,43.46005208333346],[-70.37536458333376,43.46161458333346],[-70.37463541666709,43.46223958333346],[-70.37468750000042,43.46276041666679],[-70.37593750000042,43.46296875000013],[-70.37723958333376,43.464427083333455],[-70.37942708333375,43.464739583333454],[-70.38036458333376,43.46557291666679],[-70.38036458333376,43.46609375000012],[-70.37963541666709,43.46656250000012],[-70.37963541666709,43.46760416666679],[-70.38026041666708,43.46786458333346],[-70.38093750000041,43.46708333333345],[-70.38135416666708,43.46911458333344],[-70.38229166666709,43.46958333333345],[-70.38281250000043,43.47067708333345],[-70.38286458333376,43.474322916666786],[-70.38208333333375,43.475937500000114],[-70.38364583333376,43.47640625000011],[-70.38375000000042,43.47677083333345],[-70.38208333333375,43.47843750000011],[-70.38375000000042,43.47906250000012],[-70.38307291666709,43.47968750000011],[-70.38291666666709,43.48062500000011],[-70.38359375000041,43.48151041666678],[-70.38390625000042,43.48515625000011],[-70.38458333333375,43.48572916666677],[-70.38375000000042,43.486562500000105],[-70.38442708333375,43.487447916666774],[-70.38458333333375,43.49072916666677],[-70.38359375000041,43.49604166666676],[-70.38296875000042,43.496875000000095],[-70.38281250000043,43.49895833333343],[-70.38125000000042,43.499895833333426],[-70.38208333333375,43.50093750000009],[-70.38052083333375,43.50156250000009],[-70.37942708333375,43.504479166666755],[-70.37880208333375,43.50473958333342],[-70.37953125000043,43.50609375000008],[-70.37890625000043,43.50630208333342],[-70.37864583333376,43.506927083333416],[-70.37739583333376,43.50723958333342],[-70.3769791666671,43.509114583333414],[-70.37552083333375,43.50989583333342],[-70.37526041666709,43.511145833333416],[-70.37463541666709,43.51140625000008],[-70.37442708333376,43.51203125000009],[-70.37343750000042,43.512864583333425],[-70.37218750000042,43.513072916666744],[-70.37213541666709,43.513593750000084],[-70.3729166666671,43.51427083333341],[-70.37135416666709,43.514895833333405],[-70.37109375000043,43.51614583333341],[-70.36973958333377,43.51718750000008],[-70.36859375000043,43.520312500000074],[-70.36364583333378,43.52526041666673],[-70.36239583333378,43.52557291666674],[-70.36192708333377,43.52776041666674],[-70.35697916666712,43.532760416666726],[-70.35552083333377,43.533072916666725],[-70.35447916666712,43.53442708333339],[-70.35302083333377,43.53473958333339],[-70.35281250000045,43.53526041666672],[-70.34968750000044,43.536406250000056],[-70.34927083333378,43.53703125000006],[-70.34802083333378,43.53723958333339],[-70.34760416666711,43.537864583333395],[-70.34656250000046,43.53796875000006],[-70.34578125000046,43.53869791666673],[-70.34390625000046,43.53890625000005],[-70.34343750000045,43.539427083333386],[-70.33968750000045,43.53963541666673],[-70.33796875000046,43.54026041666672],[-70.32703125000047,43.54057291666672],[-70.3252083333338,43.541250000000055],[-70.32390625000048,43.54036458333339],[-70.32281250000048,43.53890625000005],[-70.32135416666713,43.538593750000054],[-70.32057291666715,43.53781250000006],[-70.32031250000048,43.53656250000006],[-70.31906250000048,43.53609375000006],[-70.31875000000048,43.53531250000006],[-70.31880208333381,43.53421875000006],[-70.31953125000048,43.53343750000006],[-70.31968750000047,43.532395833333396],[-70.32114583333382,43.53192708333339],[-70.32140625000048,43.5313020833334],[-70.32203125000048,43.53109375000006],[-70.32203125000048,43.53057291666672],[-70.32125000000048,43.5298958333334],[-70.32286458333381,43.52859375000006],[-70.32276041666714,43.52807291666672],[-70.31854166666714,43.52713541666674],[-70.31104166666715,43.527239583333404],[-70.30885416666715,43.52807291666672],[-70.30776041666715,43.52953125000007],[-70.30713541666715,43.52973958333339],[-70.30718750000048,43.53026041666673],[-70.30864583333383,43.53072916666673],[-70.30875000000049,43.5314583333334],[-70.30796875000048,43.53255208333339],[-70.30776041666715,43.5344270833334],[-70.30703125000049,43.53526041666672],[-70.3053125000005,43.53625000000007],[-70.3039062500005,43.536093750000056],[-70.30322916666717,43.535416666666734],[-70.30208333333383,43.53656250000006],[-70.30286458333383,43.53703125000006],[-70.30598958333383,43.53723958333339],[-70.30692708333382,43.53807291666673],[-70.30713541666715,43.53994791666672],[-70.30791666666715,43.54104166666672],[-70.30692708333382,43.543645833333386],[-70.3028125000005,43.54776041666672],[-70.30135416666715,43.54807291666671],[-70.3003125000005,43.549427083333384],[-70.2990625000005,43.54963541666672],[-70.29843750000049,43.5502604166667],[-70.2940625000005,43.550729166666706],[-70.2934375000005,43.55197916666671],[-70.29239583333384,43.55213541666672],[-70.29161458333384,43.55286458333338],[-70.28973958333384,43.55307291666671],[-70.28864583333385,43.55442708333337],[-70.2871875000005,43.55473958333337],[-70.28526041666717,43.55692708333337],[-70.28307291666718,43.55723958333337],[-70.28192708333384,43.558593750000036],[-70.27973958333385,43.558906250000035],[-70.27947916666719,43.55942708333337],[-70.27822916666719,43.55963541666671],[-70.27765625000052,43.5602604166667],[-70.27401041666718,43.56057291666671],[-70.27260416666718,43.56208333333337],[-70.27192708333385,43.56140625000004],[-70.26973958333386,43.56109375000003],[-70.26875000000052,43.559791666666705],[-70.26953125000053,43.5580729166667],[-70.26723958333386,43.556145833333375],[-70.26677083333385,43.55468750000004],[-70.26385416666719,43.55359375000004],[-70.2635416666672,43.55307291666671],[-70.26062500000053,43.55276041666671],[-70.25973958333387,43.55197916666671],[-70.2596354166672,43.550729166666706],[-70.2604166666672,43.549791666666714],[-70.26036458333387,43.549062500000055],[-70.25989583333387,43.54875000000005],[-70.25942708333386,43.549427083333384],[-70.25708333333387,43.54989583333337],[-70.25786458333387,43.550729166666706],[-70.25786458333387,43.55177083333338],[-70.25645833333387,43.55276041666671],[-70.24770833333388,43.55276041666671],[-70.24645833333388,43.55213541666672],[-70.24395833333388,43.55192708333337],[-70.24322916666722,43.551250000000046],[-70.24187500000055,43.554270833333376],[-70.23895833333388,43.55473958333337],[-70.23697916666723,43.55692708333337],[-70.23552083333388,43.55723958333337],[-70.23442708333388,43.558593750000036],[-70.2322395833339,43.558906250000035],[-70.23140625000056,43.55963541666671],[-70.23130208333389,43.5602604166667],[-70.23203125000056,43.56057291666671],[-70.23203125000056,43.56109375000003],[-70.23140625000056,43.56130208333337],[-70.23026041666722,43.5627604166667],[-70.22838541666722,43.56296875000004],[-70.22713541666722,43.563697916666705],[-70.22401041666723,43.563906250000024],[-70.2223958333339,43.56453125000004],[-70.22197916666724,43.563906250000024],[-70.21906250000058,43.562812500000035],[-70.21864583333391,43.561562500000036]],[[-70.23942708333388,43.545260416666714],[-70.24218750000054,43.542239583333384],[-70.24343750000054,43.54203125000006],[-70.24442708333387,43.54114583333339],[-70.24442708333387,43.53968750000006],[-70.24322916666722,43.53890625000005],[-70.23593750000055,43.538593750000054],[-70.23479166666722,43.53791666666672],[-70.23385416666721,43.53807291666672],[-70.23270833333389,43.539427083333386],[-70.23083333333389,43.53958333333339],[-70.22979166666723,43.53927083333339],[-70.22942708333389,43.5380208333334],[-70.22890625000056,43.5380208333334],[-70.22859375000056,43.53947916666672],[-70.22625000000056,43.541562500000055],[-70.22703125000056,43.542552083333376],[-70.22692708333389,43.544427083333396],[-70.22609375000056,43.545260416666714],[-70.22421875000056,43.545468750000055],[-70.22375000000056,43.54593750000005],[-70.22666666666723,43.54708333333338],[-70.22854166666723,43.54692708333338],[-70.22937500000056,43.54625000000005],[-70.23145833333389,43.54708333333338],[-70.23260416666722,43.54625000000005],[-70.23296875000055,43.547604166666716],[-70.23343750000055,43.547916666666715],[-70.23395833333389,43.54723958333338],[-70.23687500000055,43.54677083333338],[-70.23755208333388,43.545520833333384],[-70.23942708333388,43.545260416666714]],[[-70.31375000000048,43.50406250000009],[-70.31536458333382,43.50276041666675],[-70.31526041666714,43.50223958333342],[-70.31307291666715,43.50223958333342],[-70.31260416666714,43.50286458333343],[-70.31135416666714,43.50307291666675],[-70.30942708333382,43.50526041666675],[-70.30723958333382,43.50557291666675],[-70.30625000000049,43.506562500000086],[-70.3078125000005,43.50703125000009],[-70.31302083333381,43.50692708333342],[-70.31458333333381,43.50614583333342],[-70.31442708333381,43.504739583333425],[-70.31375000000048,43.50406250000009]],[[-70.31953125000048,43.50859375000008],[-70.31953125000048,43.50807291666675],[-70.31828125000048,43.507135416666756],[-70.31671875000048,43.507135416666756],[-70.31572916666715,43.50791666666675],[-70.31489583333382,43.50708333333342],[-70.31468750000047,43.50979166666676],[-70.3167708333338,43.51125000000008],[-70.31718750000047,43.50989583333342],[-70.31864583333382,43.509427083333414],[-70.31890625000048,43.50880208333342],[-70.31953125000048,43.50859375000008]],[[-70.47572916666701,43.11963541666711],[-70.47531250000034,43.1202604166671],[-70.473854166667,43.120729166667104],[-70.47375000000034,43.12145833333377],[-70.47421875000033,43.1219791666671],[-70.47578125000034,43.122135416667106],[-70.476354166667,43.1227604166671],[-70.47781250000034,43.1226041666671],[-70.477916666667,43.121875000000436],[-70.47677083333366,43.11968750000044],[-70.47572916666701,43.11963541666711]],[[-70.6154687500002,42.98807291666722],[-70.6160937500002,42.987864583333895],[-70.61791666666687,42.98572916666723],[-70.6168750000002,42.98473958333389],[-70.61437500000021,42.9844270833339],[-70.61375000000021,42.983645833333895],[-70.6135937500002,42.9822395833339],[-70.6129687500002,42.98161458333389],[-70.6129687500002,42.980052083333895],[-70.61526041666687,42.97781250000057],[-70.61541666666687,42.97687500000057],[-70.61510416666687,42.976354166667235],[-70.61406250000022,42.97609375000057],[-70.6135937500002,42.973906250000574],[-70.61239583333355,42.97291666666724],[-70.61192708333354,42.97494791666723],[-70.60973958333355,42.975729166667236],[-70.60927083333354,42.9767708333339],[-70.60458333333355,42.9773958333339],[-70.60541666666688,42.97885416666723],[-70.60526041666688,42.980260416667235],[-70.60458333333355,42.980937500000564],[-70.60145833333355,42.98140625000056],[-70.60114583333356,42.98192708333389],[-70.59989583333356,42.982135416667234],[-70.59958333333356,42.98260416666723],[-70.60088541666688,42.98359375000056],[-70.60791666666688,42.98406250000056],[-70.60859375000021,42.9847395833339],[-70.60880208333354,42.98661458333389],[-70.60942708333354,42.98729166666723],[-70.60973958333355,42.99020833333389],[-70.61135416666687,42.99192708333389],[-70.61395833333354,42.99291666666722],[-70.61619791666688,42.99078125000055],[-70.61619791666688,42.98921875000055],[-70.6154687500002,42.988593750000554],[-70.6154687500002,42.98807291666722]],[[-70.60510416666688,43.00385416666721],[-70.60406250000023,43.00380208333388],[-70.60359375000021,43.00442708333387],[-70.60125000000022,43.004895833333876],[-70.60260416666688,43.007083333333874],[-70.60302083333355,43.00640625000053],[-70.60427083333354,43.00619791666721],[-70.60526041666688,43.00531250000054],[-70.60510416666688,43.00385416666721]],[[-70.20012323043012,43.588522602903815],[-70.20057291666726,43.588072916666675],[-70.20244791666725,43.58786458333335],[-70.20302083333391,43.58723958333334],[-70.20395833333392,43.58708333333335],[-70.20484375000058,43.58843750000001],[-70.20848958333391,43.58890625000001],[-70.20968750000057,43.59026041666667],[-70.21114583333392,43.59057291666667],[-70.21140625000058,43.59119791666668],[-70.2119270833339,43.59119791666668],[-70.21239583333391,43.59046875000001],[-70.21343750000057,43.59052083333334],[-70.21453125000058,43.59270833333334],[-70.21453125000058,43.59479166666667],[-70.21375000000057,43.59645833333334],[-70.21453125000058,43.59739583333334],[-70.2145833333339,43.598125],[-70.21308003322233,43.5999101688825]],[[-70.20022266888309,43.5999101688825],[-70.20012323043012,43.59981073042954]]]}}]}