{"type":"FeatureCollection","features":[{"type":"Feature","properties":{},"geometry":{"type":"MultiPolygon","coordinates":[[[[-70.15,42.70041666666726],[-70.1504166666674,42.70041666666726],[-70.1504166666674,42.7],[-70.76291666666684,42.7],[-70.76291666666684,42.70041666666726],[-70.76375000000017,42.70041666666726],[-70.76375000000017,42.7],[-70.76802083333291,42.7],[-70.76859375000016,42.70057291666726],[-70.7688020833335,42.70244791666725],[-70.7695833333335,42.703541666667256],[-70.76927083333351,42.704479166667255],[-70.76791666666684,42.70489583333392],[-70.76947916666683,42.70588541666725],[-70.76953125000017,42.70744791666725],[-70.7688020833335,42.70807291666725],[-70.7688020833335,42.70859375000058],[-70.7694270833335,42.70880208333392],[-70.77052083333349,42.710260416667246],[-70.77197916666682,42.71072916666725],[-70.77203125000017,42.711770833333915],[-70.7713020833335,42.71223958333391],[-70.7713020833335,42.712760416667244],[-70.77276041666683,42.71385416666725],[-70.77307291666683,42.71531250000058],[-70.77442708333349,42.716354166667244],[-70.77468750000016,42.71760416666724],[-70.77614583333349,42.71807291666724],[-70.77640625000016,42.718697916667246],[-70.77703125000016,42.71890625000057],[-70.77703125000016,42.719427083333905],[-70.77625000000016,42.72010416666724],[-70.77781250000015,42.72072916666724],[-70.77890625000016,42.723645833333904],[-70.77953125000016,42.72406250000057],[-70.77953125000016,42.725104166667236],[-70.77880208333349,42.72557291666723],[-70.77880208333349,42.726093750000565],[-70.77942708333349,42.726354166667235],[-70.7798958333335,42.72781250000057],[-70.78114583333348,42.72807291666723],[-70.78192708333349,42.72885416666723],[-70.78223958333349,42.730312500000565],[-70.78359375000015,42.73135416666723],[-70.78473958333349,42.73447916666723],[-70.78541666666682,42.734895833333894],[-70.78463541666682,42.73557291666722],[-70.78468750000015,42.736093750000556],[-70.78614583333348,42.736406250000556],[-70.78692708333348,42.737239583333896],[-70.78723958333349,42.739427083333894],[-70.78875000000015,42.74072916666722],[-70.78708333333348,42.74177083333389],[-70.78864583333348,42.742239583333884],[-70.78942708333348,42.74302083333389],[-70.78963541666681,42.744270833333886],[-70.79036458333348,42.745208333333885],[-70.79057291666682,42.74770833333388],[-70.79119791666682,42.748229166667215],[-70.79140625000015,42.749479166667214],[-70.79203125000015,42.74989583333388],[-70.79223958333348,42.75114583333388],[-70.79291666666681,42.751562500000546],[-70.79213541666681,42.75239583333388],[-70.79213541666681,42.753437500000544],[-70.79442708333347,42.755520833333875],[-70.79473958333348,42.75697916666721],[-70.79609375000014,42.758229166667206],[-70.79656250000015,42.7626041666672],[-70.79791666666681,42.7635416666672],[-70.7977604166668,42.7644791666672],[-70.79708333333348,42.7651041666672],[-70.79843750000015,42.765520833333866],[-70.79890625000014,42.7669791666672],[-70.79953125000014,42.76755208333386],[-70.79953125000014,42.76911458333386],[-70.79875000000014,42.770104166667195],[-70.79942708333347,42.77062500000053],[-70.79973958333348,42.77354166666719],[-70.80203125000014,42.77557291666719],[-70.80203125000014,42.77609375000052],[-70.80130208333347,42.77656250000052],[-70.80130208333347,42.77760416666719],[-70.8027604166668,42.778906250000524],[-70.8030729166668,42.78109375000052],[-70.80375000000014,42.78156250000052],[-70.80208333333347,42.782604166667184],[-70.80364583333346,42.78307291666718],[-70.8036979166668,42.78359375000051],[-70.8029166666668,42.78427083333385],[-70.80453125000014,42.78588541666718],[-70.80453125000014,42.787447916667176],[-70.80375000000014,42.78843750000051],[-70.8054166666668,42.78906250000051],[-70.8046354166668,42.79005208333384],[-70.80468750000013,42.79161458333384],[-70.80614583333346,42.79239583333384],[-70.80692708333346,42.79432291666718],[-70.80723958333347,42.8023437500005],[-70.8079166666668,42.803229166667165],[-70.80723958333347,42.8039062500005],[-70.80708333333347,42.8053125000005],[-70.80859375000013,42.808385416667164],[-70.80906250000014,42.81494791666716],[-70.80937500000013,42.815416666667154],[-70.81031250000012,42.81557291666715],[-70.81192708333346,42.81723958333382],[-70.81213541666679,42.819114583333814],[-70.81286458333346,42.82005208333381],[-70.81281250000012,42.82161458333381],[-70.81187500000013,42.822083333333815],[-70.81135416666679,42.823020833333814],[-70.81130208333346,42.82614583333381],[-70.81203125000013,42.827552083333806],[-70.81218750000012,42.829114583333805],[-70.81343750000013,42.82984375000048],[-70.81375000000013,42.83218750000047],[-70.81359375000012,42.83348958333381],[-70.81208333333346,42.835104166667136],[-70.81359375000012,42.8364583333338],[-70.81380208333346,42.8389583333338],[-70.81453125000013,42.840364583333795],[-70.81473958333346,42.8434895833338],[-70.81541666666679,42.84406250000046],[-70.81463541666679,42.84505208333379],[-70.81463541666679,42.84661458333379],[-70.81536458333346,42.84755208333379],[-70.8155729166668,42.849427083333794],[-70.81625000000012,42.84989583333379],[-70.81593750000013,42.85036458333379],[-70.81458333333346,42.85072916666712],[-70.81526041666679,42.85140625000046],[-70.81541666666679,42.852812500000454],[-70.81458333333346,42.854270833333786],[-70.81593750000013,42.85479166666712],[-70.81625000000012,42.855833333333784],[-70.81609375000012,42.85770833333378],[-70.81473958333346,42.85901041666712],[-70.81458333333346,42.86031250000045],[-70.81473958333346,42.86265625000045],[-70.81541666666679,42.86322916666711],[-70.81463541666679,42.86453125000044],[-70.81463541666679,42.867135416667104],[-70.81541666666679,42.86843750000044],[-70.81473958333346,42.86895833333377],[-70.81458333333346,42.87083333333377],[-70.81541666666679,42.873125000000435],[-70.81473958333346,42.87390625000044],[-70.81458333333346,42.87531250000043],[-70.81536458333346,42.87671875000043],[-70.81541666666679,42.87781250000043],[-70.81473958333346,42.8790104166671],[-70.81453125000013,42.88213541666709],[-70.81380208333346,42.88338541666709],[-70.81359375000012,42.885260416667094],[-70.8130729166668,42.88552083333376],[-70.81286458333346,42.886770833333756],[-70.81213541666679,42.887395833333755],[-70.81213541666679,42.88843750000042],[-70.81286458333346,42.88890625000042],[-70.81286458333346,42.88942708333375],[-70.81223958333347,42.88968750000042],[-70.81192708333346,42.89114583333375],[-70.8104166666668,42.89239583333375],[-70.81052083333346,42.89276041666708],[-70.81197916666679,42.89322916666708],[-70.81203125000013,42.89427083333375],[-70.81140625000013,42.894687500000416],[-70.81093750000014,42.89614583333375],[-70.80989583333347,42.89640625000042],[-70.80942708333346,42.898593750000416],[-70.80880208333346,42.89906250000041],[-70.80880208333346,42.90010416666708],[-70.80942708333346,42.90078125000041],[-70.80958333333346,42.90406250000041],[-70.80942708333346,42.905885416667076],[-70.80875000000013,42.90677083333374],[-70.80958333333346,42.90760416666707],[-70.80875000000013,42.9084375000004],[-70.80942708333346,42.90885416666707],[-70.80958333333346,42.90979166666707],[-70.80880208333346,42.910885416667064],[-70.80859375000013,42.91276041666707],[-70.80697916666679,42.91442708333373],[-70.80552083333346,42.91473958333373],[-70.8044791666668,42.91609375000039],[-70.80322916666681,42.91630208333373],[-70.8029166666668,42.91677083333373],[-70.79291666666681,42.91739583333373],[-70.7938541666668,42.91859375000039],[-70.79531250000014,42.91906250000039],[-70.79552083333347,42.92010416666706],[-70.79645833333348,42.92041666666706],[-70.79677083333348,42.92098958333373],[-70.7969791666668,42.922135416667054],[-70.79692708333347,42.929010416667055],[-70.79640625000015,42.92979166666705],[-70.79619791666681,42.93229166666705],[-70.79546875000014,42.93338541666704],[-70.79536458333348,42.93494791666704],[-70.79463541666681,42.93588541666704],[-70.79442708333347,42.93776041666705],[-70.79223958333348,42.939687500000375],[-70.79203125000015,42.94093750000037],[-70.79114583333347,42.9419270833337],[-70.78989583333349,42.94213541666704],[-70.7893229166668,42.942760416667035],[-70.78619791666682,42.943020833333705],[-70.78541666666682,42.94354166666704],[-70.78458333333349,42.94562500000037],[-70.7848958333335,42.9461458333337],[-70.78614583333348,42.94656250000037],[-70.78619791666682,42.947604166667034],[-70.78473958333349,42.94885416666703],[-70.78453125000016,42.95010416666703],[-70.78390625000016,42.9505208333337],[-70.78343750000016,42.95197916666703],[-70.78218750000015,42.95223958333369],[-70.77854166666683,42.956093750000356],[-70.77604166666683,42.95619791666703],[-70.7747395833335,42.955468750000364],[-70.77463541666683,42.956093750000356],[-70.77541666666683,42.95677083333369],[-70.7747395833335,42.95718750000036],[-70.77442708333349,42.95843750000036],[-70.77223958333349,42.958906250000354],[-70.77140625000017,42.95973958333369],[-70.77093750000017,42.96192708333369],[-70.7698958333335,42.962187500000354],[-70.7691145833335,42.963645833333686],[-70.7670833333335,42.96406250000035],[-70.76718750000016,42.96442708333368],[-70.7686458333335,42.964895833333685],[-70.7688020833335,42.96593750000035],[-70.76953125000017,42.96671875000035],[-70.76953125000017,42.968281250000345],[-70.7688020833335,42.969218750000344],[-70.76859375000016,42.97109375000035],[-70.76765625000016,42.971927083333675],[-70.76401041666684,42.972239583333675],[-70.7636458333335,42.97276041666701],[-70.7620833333335,42.97322916666701],[-70.76359375000017,42.97468750000034],[-70.76369791666684,42.97593750000034],[-70.76223958333351,42.977395833333674],[-70.76203125000018,42.98114583333367],[-70.7613020833335,42.982552083333665],[-70.76119791666684,42.984114583333664],[-70.76046875000017,42.98489583333367],[-70.76026041666684,42.986145833333666],[-70.75890625000018,42.98718750000033],[-70.75859375000017,42.98864583333366],[-70.75562500000018,42.991197916667],[-70.75354166666685,42.991197916667],[-70.75229166666685,42.99046875000033],[-70.74979166666685,42.99057291666699],[-70.74776041666685,42.99286458333366],[-70.74713541666685,42.99307291666699],[-70.74713541666685,42.99359375000032],[-70.74791666666685,42.99427083333366],[-70.74723958333352,42.99473958333366],[-70.74692708333352,42.99692708333366],[-70.74546875000019,42.998072916666985],[-70.74619791666686,42.99942708333365],[-70.74557291666686,42.99963541666699],[-70.74427083333353,43.00125000000032],[-70.74281250000018,43.000416666666986],[-70.74171875000019,43.00052083333365],[-70.74125000000019,43.001041666666985],[-70.7420312500002,43.00270833333365],[-70.74223958333353,43.00520833333365],[-70.74291666666686,43.00604166666698],[-70.74197916666685,43.00843750000031],[-70.74052083333352,43.00890625000031],[-70.73911458333353,43.01114583333364],[-70.73723958333352,43.011406250000306],[-70.73645833333353,43.01203125000031],[-70.73395833333353,43.01223958333364],[-70.73307291666687,43.01307291666698],[-70.73276041666686,43.015260416666976],[-70.73197916666686,43.0160937500003],[-70.73052083333353,43.0164062500003],[-70.72958333333354,43.01739583333364],[-70.73093750000021,43.01817708333364],[-70.7312500000002,43.020520833333634],[-70.7310937500002,43.02182291666697],[-70.72973958333354,43.02307291666697],[-70.72942708333353,43.02526041666697],[-70.7278125000002,43.026927083333625],[-70.72656250000021,43.027135416666965],[-70.72578125000021,43.02786458333363],[-70.7239062500002,43.02807291666696],[-70.7228125000002,43.02942708333362],[-70.72135416666687,43.02973958333362],[-70.71994791666688,43.03197916666696],[-70.71807291666687,43.03223958333362],[-70.71723958333355,43.03296875000029],[-70.71640625000022,43.03390625000029],[-70.71609375000021,43.03609375000029],[-70.71447916666688,43.03776041666695],[-70.71354166666688,43.03791666666695],[-70.71302083333354,43.03854166666695],[-70.71276041666688,43.04104166666695],[-70.71208333333355,43.04156250000028],[-70.71291666666689,43.04260416666695],[-70.71041666666689,43.04322916666695],[-70.71109375000022,43.04385416666695],[-70.71130208333355,43.045104166666945],[-70.71192708333355,43.04552083333361],[-70.71234375000022,43.04677083333361],[-70.71468750000022,43.04708333333361],[-70.71598958333354,43.047864583333606],[-70.71640625000022,43.05098958333361],[-70.71708333333355,43.051770833333606],[-70.71640625000022,43.05223958333361],[-70.71609375000021,43.05442708333361],[-70.71526041666688,43.05526041666693],[-70.71338541666688,43.055364583333606],[-70.71239583333355,43.0545833333336],[-70.71140625000022,43.05562500000027],[-70.71135416666688,43.05812500000027],[-70.71291666666689,43.0592708333336],[-70.71125000000022,43.060937500000264],[-70.71260416666689,43.06135416666693],[-70.71291666666689,43.06229166666693],[-70.71260416666689,43.06281250000026],[-70.71135416666688,43.063072916666925],[-70.71130208333355,43.06359375000026],[-70.71203125000022,43.06390625000026],[-70.71203125000022,43.06442708333359],[-70.71041666666689,43.06572916666693],[-70.71093750000023,43.06625000000026],[-70.71140625000022,43.065468750000264],[-70.71192708333355,43.06562500000026],[-70.71192708333355,43.068541666666924],[-70.71130208333355,43.06906250000026],[-70.71114583333355,43.07010416666692],[-70.70968750000021,43.07057291666692],[-70.70958333333355,43.070937500000255],[-70.71093750000023,43.071197916666925],[-70.71177083333356,43.07041666666692],[-70.71218750000021,43.07109375000025],[-70.71364583333354,43.07140625000025],[-70.71390625000022,43.07203125000026],[-70.71536458333355,43.07286458333359],[-70.71796875000021,43.07286458333359],[-70.71979166666688,43.07208333333359],[-70.72088541666687,43.07286458333359],[-70.72276041666687,43.073072916666916],[-70.7235937500002,43.073906250000256],[-70.72375000000021,43.07468750000025],[-70.7235937500002,43.076093750000254],[-70.72291666666688,43.07677083333358],[-70.72427083333355,43.07718750000025],[-70.72458333333354,43.07812500000025],[-70.72307291666688,43.079739583333584],[-70.72276041666687,43.081614583333575],[-70.72057291666687,43.082239583333575],[-70.71979166666688,43.08286458333358],[-70.71770833333355,43.082812500000244],[-70.71677083333356,43.08135416666691],[-70.71552083333354,43.08109375000024],[-70.71473958333355,43.08031250000025],[-70.71453125000022,43.07906250000025],[-70.71406250000021,43.07875000000025],[-70.71354166666688,43.07942708333358],[-70.71062500000022,43.07989583333358],[-70.70979166666689,43.08114583333358],[-70.70729166666689,43.08140625000024],[-70.70677083333356,43.08203125000025],[-70.70552083333355,43.082239583333575],[-70.7051041666669,43.08291666666691],[-70.70442708333356,43.082239583333575],[-70.70223958333355,43.081927083333575],[-70.70140625000023,43.08109375000025],[-70.7011979166669,43.079218750000244],[-70.70046875000023,43.07843750000025],[-70.7002604166669,43.07718750000025],[-70.69880208333356,43.07593750000025],[-70.69880208333356,43.074895833333585],[-70.69953125000023,43.07442708333358],[-70.69953125000023,43.07390625000025],[-70.69640625000024,43.07197916666692],[-70.69630208333356,43.07072916666692],[-70.69703125000024,43.07026041666692],[-70.69703125000024,43.069739583333586],[-70.6955729166669,43.06864583333359],[-70.6952604166669,43.06718750000026],[-70.69380208333357,43.06552083333359],[-70.69067708333357,43.06526041666692],[-70.6896354166669,43.06463541666693],[-70.68703125000025,43.06463541666693],[-70.68557291666691,43.065468750000264],[-70.68531250000024,43.066093750000256],[-70.68406250000025,43.066302083333596],[-70.68328125000025,43.06703125000026],[-70.68171875000024,43.06703125000026],[-70.68072916666691,43.06625000000026],[-70.68015625000024,43.06692708333359],[-70.67651041666691,43.06723958333359],[-70.67437500000025,43.069427083333586],[-70.67145833333359,43.069739583333586],[-70.67046875000025,43.07057291666692],[-70.67046875000025,43.07109375000025],[-70.67125000000026,43.07177083333359],[-70.67041666666692,43.07260416666692],[-70.6677083333336,43.07302083333359],[-70.6667708333336,43.07447916666692],[-70.66375000000026,43.07572916666692],[-70.6645833333336,43.07718750000025],[-70.66442708333359,43.07859375000025],[-70.66375000000026,43.07906250000025],[-70.66453125000027,43.080364583333576],[-70.66442708333359,43.08348958333358],[-70.66364583333359,43.08442708333357],[-70.66218750000026,43.08473958333357],[-70.6617708333336,43.08536458333358],[-70.66072916666694,43.08536458333358],[-70.65979166666693,43.084583333333576],[-70.65875000000027,43.084895833333576],[-70.66026041666693,43.08635416666691],[-70.6603645833336,43.08760416666691],[-70.6597395833336,43.08807291666691],[-70.6594270833336,43.09026041666691],[-70.65812500000027,43.09125000000024],[-70.65640625000027,43.09052083333357],[-70.65619791666694,43.09177083333357],[-70.65546875000027,43.09239583333357],[-70.65526041666693,43.09364583333357],[-70.65473958333361,43.09390625000024],[-70.65463541666693,43.09578125000023],[-70.65541666666694,43.096770833333565],[-70.6545833333336,43.0976041666669],[-70.65536458333361,43.0982291666669],[-70.65531250000026,43.09927083333356],[-70.65385416666693,43.09973958333356],[-70.65281250000027,43.101093750000224],[-70.64968750000027,43.10223958333356],[-70.6486458333336,43.10359375000022],[-70.64718750000027,43.10390625000022],[-70.64630208333361,43.10489583333356],[-70.64609375000028,43.10614583333356],[-70.64473958333362,43.10718750000022],[-70.64447916666694,43.10843750000022],[-70.64302083333361,43.10890625000022],[-70.64192708333361,43.110364583333556],[-70.64130208333361,43.11057291666688],[-70.64130208333361,43.111093750000215],[-70.64203125000029,43.111406250000215],[-70.64192708333361,43.11192708333355],[-70.63973958333361,43.11223958333355],[-70.63927083333363,43.112916666666884],[-70.63822916666695,43.11208333333355],[-70.63723958333362,43.11302083333355],[-70.63703125000029,43.11427083333355],[-70.63625000000029,43.11520833333355],[-70.63640625000029,43.11614583333355],[-70.63703125000029,43.116562500000214],[-70.63692708333362,43.11781250000021],[-70.6359375000003,43.11869791666688],[-70.63468750000028,43.11890625000021],[-70.63291666666696,43.12072916666688],[-70.63359375000029,43.12145833333354],[-70.63375000000029,43.12333333333354],[-70.6334375000003,43.12437500000021],[-70.63218750000028,43.12489583333354],[-70.63213541666696,43.125937500000205],[-70.63276041666695,43.12635416666687],[-70.63302083333362,43.12760416666687],[-70.63427083333363,43.12807291666687],[-70.63458333333362,43.12885416666687],[-70.6334375000003,43.13276041666687],[-70.63145833333363,43.133593750000195],[-70.62395833333363,43.1339062500002],[-70.62208333333363,43.1346875000002],[-70.6220312500003,43.13578125000019],[-70.6214062500003,43.13635416666686],[-70.6212500000003,43.13729166666686],[-70.62208333333363,43.138437500000194],[-70.6214062500003,43.13885416666686],[-70.6212500000003,43.13979166666686],[-70.62156250000031,43.14031250000019],[-70.62260416666697,43.14057291666686],[-70.62302083333363,43.14244791666685],[-70.62427083333364,43.143229166666856],[-70.62473958333364,43.14760416666685],[-70.62541666666696,43.148437500000185],[-70.62307291666697,43.15062500000018],[-70.62276041666696,43.15354166666685],[-70.62213541666696,43.15406250000018],[-70.62192708333363,43.15531250000018],[-70.61973958333364,43.15729166666684],[-70.6195312500003,43.15979166666684],[-70.61880208333363,43.16072916666684],[-70.6185937500003,43.16197916666684],[-70.6178125000003,43.162760416666835],[-70.61635416666697,43.16322916666684],[-70.6160937500003,43.16447916666684],[-70.6154687500003,43.1647395833335],[-70.61526041666697,43.165364583333506],[-70.61473958333364,43.165364583333506],[-70.61442708333364,43.16463541666684],[-70.61380208333364,43.1647395833335],[-70.61380208333364,43.16526041666683],[-70.61458333333364,43.16593750000017],[-70.6135937500003,43.16703125000017],[-70.61307291666698,43.16703125000017],[-70.61239583333364,43.16625000000017],[-70.61182291666697,43.167604166666834],[-70.61052083333365,43.167916666666834],[-70.60817708333364,43.16776041666683],[-70.60697916666699,43.16713541666684],[-70.60322916666698,43.1669270833335],[-70.60260416666699,43.166302083333505],[-70.60135416666698,43.166093750000165],[-70.60026041666698,43.1647395833335],[-70.59838541666699,43.164531250000174],[-70.59760416666698,43.16390625000017],[-70.593854166667,43.16380208333351],[-70.59223958333367,43.16468750000017],[-70.59213541666699,43.16593750000017],[-70.59276041666699,43.16640625000017],[-70.593072916667,43.16859375000017],[-70.59375000000033,43.169062500000166],[-70.59296875000032,43.169739583333495],[-70.59302083333365,43.17026041666683],[-70.59427083333367,43.1705208333335],[-70.59505208333366,43.17197916666683],[-70.59692708333365,43.172395833333496],[-70.59734375000032,43.17343750000016],[-70.60125000000032,43.17406250000016],[-70.60192708333365,43.1747395833335],[-70.60213541666698,43.17661458333349],[-70.60276041666698,43.177291666666825],[-70.60281250000031,43.17979166666682],[-70.60156250000033,43.18072916666682],[-70.60109375000032,43.18510416666682],[-70.60036458333366,43.18609375000015],[-70.59927083333366,43.18708333333348],[-70.59828125000033,43.18630208333349],[-70.59640625000031,43.18640625000015],[-70.59442708333366,43.18869791666682],[-70.59380208333366,43.188906250000144],[-70.59380208333366,43.18942708333348],[-70.59453125000033,43.18989583333348],[-70.59447916666699,43.190937500000146],[-70.59302083333365,43.19140625000014],[-70.59109375000033,43.19359375000014],[-70.58890625000032,43.19406250000014],[-70.58859375000033,43.19531250000014],[-70.587916666667,43.19572916666681],[-70.588697916667,43.19671875000014],[-70.58864583333366,43.198281250000136],[-70.58718750000033,43.198906250000135],[-70.58625000000033,43.19989583333347],[-70.587760416667,43.20145833333347],[-70.587916666667,43.202500000000136],[-70.587760416667,43.204375000000134],[-70.58625000000033,43.2057291666668],[-70.58703125000034,43.20671875000013],[-70.58692708333366,43.208593750000134],[-70.58614583333366,43.20942708333346],[-70.58468750000033,43.20973958333346],[-70.58281250000033,43.21192708333346],[-70.581354166667,43.21223958333346],[-70.58057291666701,43.21302083333346],[-70.58010416666701,43.21447916666679],[-70.578854166667,43.214739583333454],[-70.57692708333367,43.217031250000126],[-70.57630208333367,43.21723958333345],[-70.57630208333367,43.217760416666785],[-70.57708333333368,43.21843750000012],[-70.57557291666701,43.21973958333346],[-70.57541666666701,43.22052083333345],[-70.57557291666701,43.221927083333455],[-70.57692708333367,43.22302083333345],[-70.57723958333368,43.22447916666678],[-70.58036458333368,43.22640625000011],[-70.58036458333368,43.22692708333344],[-70.57958333333367,43.22760416666678],[-70.58119791666701,43.22890625000011],[-70.58046875000034,43.23026041666677],[-70.58109375000033,43.230468750000114],[-70.581354166667,43.231093750000106],[-70.58260416666701,43.231354166666776],[-70.583385416667,43.23281250000011],[-70.585260416667,43.23307291666677],[-70.58552083333366,43.233593750000104],[-70.58697916666699,43.2342187500001],[-70.58703125000034,43.2357812500001],[-70.58625000000033,43.23677083333344],[-70.587604166667,43.23723958333344],[-70.587916666667,43.23802083333344],[-70.587760416667,43.23942708333344],[-70.587135416667,43.24005208333343],[-70.58723958333367,43.24192708333344],[-70.587760416667,43.242239583333436],[-70.588229166667,43.244427083333434],[-70.58927083333367,43.2445312500001],[-70.590104166667,43.2437500000001],[-70.590729166667,43.2476562500001],[-70.59208333333366,43.24854166666676],[-70.59197916666699,43.249270833333426],[-70.590729166667,43.24968750000009],[-70.590260416667,43.251145833333425],[-70.58958333333366,43.25156250000009],[-70.59125000000033,43.25427083333342],[-70.58973958333367,43.25552083333342],[-70.58927083333367,43.25697916666675],[-70.587916666667,43.25739583333342],[-70.588229166667,43.25786458333342],[-70.58958333333366,43.25822916666675],[-70.58890625000033,43.25890625000009],[-70.58859375000033,43.261093750000086],[-70.58781250000033,43.26192708333341],[-70.58656250000034,43.26223958333342],[-70.58609375000033,43.264427083333416],[-70.58380208333367,43.266406250000074],[-70.58380208333367,43.26692708333341],[-70.58453125000034,43.267552083333406],[-70.584479166667,43.269114583333405],[-70.58223958333367,43.27052083333341],[-70.582135416667,43.271770833333406],[-70.582916666667,43.27260416666674],[-70.58140625000034,43.27385416666674],[-70.58109375000033,43.27531250000007],[-70.58010416666701,43.27625000000007],[-70.57942708333367,43.27546875000007],[-70.57880208333367,43.27557291666673],[-70.57953125000034,43.2769270833334],[-70.57723958333368,43.27890625000007],[-70.57677083333368,43.281250000000064],[-70.575729166667,43.28041666666673],[-70.575260416667,43.28197916666673],[-70.574479166667,43.282760416666726],[-70.57322916666702,43.282968750000066],[-70.57244791666702,43.28369791666673],[-70.570572916667,43.28390625000006],[-70.56973958333369,43.284843750000064],[-70.56942708333368,43.288489583333394],[-70.56875000000035,43.28906250000006],[-70.56953125000035,43.290052083333386],[-70.56942708333368,43.291614583333384],[-70.56723958333367,43.292239583333384],[-70.56630208333368,43.29322916666672],[-70.56635416666701,43.294270833333385],[-70.56791666666702,43.294895833333385],[-70.56723958333369,43.29567708333339],[-70.56692708333368,43.29932291666672],[-70.56473958333369,43.30135416666671],[-70.56453125000036,43.30260416666671],[-70.56390625000036,43.303125000000044],[-70.56359375000035,43.30604166666671],[-70.56208333333369,43.30739583333337],[-70.56286458333369,43.3080729166667],[-70.56286458333369,43.308593750000036],[-70.56223958333369,43.308854166666706],[-70.5617708333337,43.31031250000004],[-70.56052083333368,43.310729166666704],[-70.56026041666702,43.3119791666667],[-70.55963541666702,43.312239583333366],[-70.5603645833337,43.31359375000003],[-70.55843750000037,43.31536458333337],[-70.5573958333337,43.31536458333337],[-70.55692708333369,43.314635416666704],[-70.55640625000036,43.31468750000003],[-70.55609375000036,43.316145833333366],[-70.55541666666703,43.31656250000003],[-70.55619791666703,43.31723958333336],[-70.55609375000036,43.317760416666694],[-70.55421875000036,43.31786458333337],[-70.55359375000036,43.3171354166667],[-70.55307291666703,43.3171354166667],[-70.55296875000036,43.317760416666694],[-70.55369791666703,43.31838541666669],[-70.55364583333369,43.31994791666669],[-70.5520833333337,43.320729166666695],[-70.5528645833337,43.321406250000024],[-70.5528645833337,43.32192708333336],[-70.5522395833337,43.3221354166667],[-70.55197916666702,43.32276041666669],[-70.55072916666704,43.32302083333336],[-70.55010416666704,43.32458333333336],[-70.54906250000036,43.323750000000025],[-70.54781250000036,43.32526041666669],[-70.54635416666703,43.32557291666669],[-70.54546875000037,43.32656250000002],[-70.54526041666703,43.32781250000002],[-70.54296875000037,43.32973958333335],[-70.54276041666704,43.330364583333356],[-70.54140625000038,43.32963541666669],[-70.5413020833337,43.33026041666668],[-70.54203125000038,43.33057291666668],[-70.54203125000038,43.331093750000015],[-70.54046875000037,43.33223958333335],[-70.5394270833337,43.33369791666669],[-70.53807291666705,43.33296875000002],[-70.53708333333371,43.334062500000016],[-70.53786458333371,43.334739583333345],[-70.53786458333371,43.33526041666668],[-70.53692708333371,43.33609375000001],[-70.53505208333371,43.336197916666684],[-70.53406250000037,43.33541666666668],[-70.53364583333371,43.33677083333335],[-70.53218750000038,43.33723958333334],[-70.53182291666704,43.337760416666676],[-70.52817708333372,43.338072916666675],[-70.52723958333372,43.33885416666668],[-70.52697916666705,43.34010416666668],[-70.52552083333372,43.34057291666667],[-70.52427083333373,43.34208333333334],[-70.52359375000039,43.341406250000006],[-70.5221875000004,43.34125000000001],[-70.52140625000038,43.34156250000001],[-70.5209375000004,43.342916666666675],[-70.51947916666705,43.34208333333334],[-70.51666666666706,43.342916666666675],[-70.51479166666707,43.34276041666667],[-70.51427083333374,43.34208333333334],[-70.51338541666706,43.34276041666667],[-70.50901041666707,43.342864583333345],[-70.50791666666707,43.342604166666675],[-70.50869791666707,43.34192708333334],[-70.50864583333373,43.341406250000006],[-70.50739583333375,43.34119791666668],[-70.5068750000004,43.34057291666667],[-70.50437500000041,43.34052083333334],[-70.5035937500004,43.34177083333334],[-70.50218750000042,43.34208333333334],[-70.5014062500004,43.34192708333334],[-70.49989583333374,43.34041666666668],[-70.49890625000042,43.341354166666676],[-70.49864583333374,43.342604166666675],[-70.49718750000041,43.34307291666667],[-70.49677083333376,43.34369791666668],[-70.49572916666709,43.34369791666668],[-70.49489583333374,43.342916666666675],[-70.49359375000041,43.344427083333336],[-70.49171875000042,43.34463541666668],[-70.49104166666709,43.34526041666667],[-70.49000000000042,43.34541666666667],[-70.48812500000042,43.34526041666667],[-70.48692708333375,43.34390625],[-70.48552083333377,43.34375000000001],[-70.48473958333375,43.34406250000001],[-70.48442708333376,43.345312500000006],[-70.48343750000043,43.346197916666675],[-70.48239583333377,43.34630208333334],[-70.48171875000043,43.346927083333334],[-70.47661458333377,43.347239583333334],[-70.4757291666671,43.34791666666667],[-70.47531250000043,43.347239583333334],[-70.4738541666671,43.346927083333334],[-70.4730729166671,43.34609375000001],[-70.4727604166671,43.34390625000001],[-70.47223958333377,43.34364583333334],[-70.47203125000044,43.34239583333334],[-70.47109375000043,43.341302083333346],[-70.47057291666711,43.341302083333346],[-70.46989583333377,43.34208333333334],[-70.4694791666671,43.341406250000006],[-70.46822916666711,43.34119791666668],[-70.46781250000043,43.34057291666667],[-70.46520833333378,43.339583333333344],[-70.46364583333377,43.34192708333334],[-70.46239583333379,43.34213541666668],[-70.46161458333378,43.342864583333345],[-70.45973958333377,43.34276041666667],[-70.45822916666711,43.34125000000001],[-70.45776041666711,43.34281250000001],[-70.45708333333378,43.343229166666674],[-70.45786458333379,43.34406250000001],[-70.45760416666712,43.345312500000006],[-70.45656250000046,43.34546875000001],[-70.45593750000045,43.34609375],[-70.45125000000046,43.346562500000005],[-70.44890625000046,43.34885416666667],[-70.44875000000046,43.34979166666667],[-70.48637500000042,43.35],[-70.4370833333338,43.35],[-70.4370833333338,43.349583333333335],[-70.43625000000047,43.349583333333335],[-70.43625000000047,43.35],[-70.1504166666674,43.35],[-70.1504166666674,43.349583333333335],[-70.15,43.349583333333335],[-70.15,42.70041666666726]],[[-70.76875000000017,42.71041666666725],[-70.76875000000017,42.70958333333392],[-70.76791666666684,42.70958333333392],[-70.76791666666684,42.71041666666725],[-70.76875000000017,42.71041666666725]],[[-70.8079166666668,42.81375000000049],[-70.8079166666668,42.81291666666716],[-70.80708333333347,42.81291666666716],[-70.80708333333347,42.81375000000049],[-70.8079166666668,42.81375000000049]],[[-70.8079166666668,42.81625000000049],[-70.8079166666668,42.81458333333382],[-70.80708333333347,42.81458333333382],[-70.80708333333347,42.81625000000049],[-70.8079166666668,42.81625000000049]],[[-70.70208333333356,43.07708333333358],[-70.70208333333356,43.07625000000025],[-70.70125000000023,43.07625000000025],[-70.70125000000023,43.07708333333358],[-70.70208333333356,43.07708333333358]],[[-70.60041666666699,42.961250000000355],[-70.60041666666699,42.96208333333369],[-70.59958333333365,42.96208333333369],[-70.59958333333365,42.96291666666702],[-70.60208333333365,42.96291666666702],[-70.60208333333365,42.961250000000355],[-70.60041666666699,42.961250000000355]],[[-70.62291666666697,42.96739583333368],[-70.62322916666697,42.967864583333686],[-70.62447916666696,42.96807291666701],[-70.62473958333364,42.96869791666702],[-70.62541666666696,42.96843750000035],[-70.62427083333364,42.96713541666702],[-70.62291666666697,42.96739583333368]],[[-70.62958333333363,42.97541666666701],[-70.62958333333363,42.974583333333676],[-70.6287500000003,42.974583333333676],[-70.6287500000003,42.97541666666701],[-70.62958333333363,42.97541666666701]],[[-70.62541666666696,42.97625000000034],[-70.62541666666696,42.977083333333674],[-70.62458333333363,42.977083333333674],[-70.62458333333363,42.97791666666701],[-70.6262500000003,42.97791666666701],[-70.6262500000003,42.97625000000034],[-70.62541666666696,42.97625000000034]],[[-70.60989583333364,42.990416666666995],[-70.61135416666697,42.99192708333366],[-70.6128125000003,42.99223958333366],[-70.61322916666698,42.99286458333366],[-70.61458333333364,42.99260416666699],[-70.61619791666698,42.990781250000325],[-70.61619791666698,42.989218750000326],[-70.6154687500003,42.98859375000033],[-70.6154687500003,42.988072916666994],[-70.6160937500003,42.98786458333367],[-70.61791666666697,42.985729166667],[-70.6168750000003,42.98473958333366],[-70.61437500000031,42.98442708333367],[-70.61375000000031,42.98364583333367],[-70.6135937500003,42.98223958333367],[-70.6129687500003,42.981614583333666],[-70.6129687500003,42.98005208333367],[-70.61526041666697,42.97781250000034],[-70.61541666666697,42.97687500000034],[-70.61510416666698,42.97635416666701],[-70.61406250000032,42.976093750000345],[-70.6135937500003,42.97390625000035],[-70.61239583333364,42.97291666666701],[-70.61192708333364,42.974947916667006],[-70.60973958333363,42.97572916666701],[-70.60927083333364,42.976770833333674],[-70.60458333333365,42.977395833333674],[-70.60526041666698,42.97807291666701],[-70.60541666666698,42.979479166667005],[-70.60458333333365,42.98093750000034],[-70.60145833333365,42.98140625000033],[-70.60114583333365,42.981927083333666],[-70.59989583333366,42.982135416667006],[-70.59958333333365,42.982604166667],[-70.60088541666698,42.98359375000033],[-70.60791666666698,42.984062500000334],[-70.60859375000031,42.98473958333367],[-70.60875000000031,42.986145833333666],[-70.60791666666698,42.987604166667],[-70.60843750000032,42.987916666667],[-70.60890625000032,42.987135416667],[-70.60942708333364,42.987291666667],[-70.60989583333364,42.990416666666995]],[[-70.59958333333365,43.00208333333365],[-70.59958333333365,43.00125000000032],[-70.59875000000032,43.00125000000032],[-70.59875000000032,43.00208333333365],[-70.59958333333365,43.00208333333365]],[[-70.59708333333366,43.002916666666984],[-70.59708333333366,43.003750000000316],[-70.59791666666699,43.003750000000316],[-70.59791666666699,43.00458333333365],[-70.59875000000032,43.00458333333365],[-70.59875000000032,43.002916666666984],[-70.59708333333366,43.002916666666984]],[[-70.60359375000031,43.004427083333645],[-70.60125000000032,43.00489583333365],[-70.60203125000032,43.00572916666698],[-70.60223958333366,43.00697916666698],[-70.60526041666698,43.005312500000315],[-70.60510416666699,43.00385416666698],[-70.60406250000032,43.00380208333365],[-70.60359375000031,43.004427083333645]],[[-70.68791666666691,43.0595833333336],[-70.68791666666691,43.058750000000266],[-70.68708333333358,43.058750000000266],[-70.68708333333358,43.0595833333336],[-70.68791666666691,43.0595833333336]],[[-70.6979166666669,43.06291666666693],[-70.6979166666669,43.0620833333336],[-70.69625000000023,43.0620833333336],[-70.69625000000023,43.06291666666693],[-70.6979166666669,43.06291666666693]],[[-70.47421875000043,43.121979166666875],[-70.47609375000043,43.12223958333354],[-70.47687500000043,43.122916666666875],[-70.4776041666671,43.12281250000021],[-70.4779166666671,43.122291666666875],[-70.47677083333377,43.11968750000021],[-70.47572916666711,43.11963541666688],[-70.47531250000043,43.12026041666687],[-70.4738541666671,43.12072916666688],[-70.47375000000044,43.12145833333354],[-70.47421875000043,43.121979166666875]],[[-70.4370833333338,43.34708333333334],[-70.4370833333338,43.346250000000005],[-70.43625000000047,43.346250000000005],[-70.43625000000047,43.34708333333334],[-70.4370833333338,43.34708333333334]]],[[[-70.95,43.35],[-70.7632551749895,43.35],[-70.85635416666676,43.309739583333375],[-70.91906250000002,43.228385416666775],[-70.95,43.107975844407754],[-70.95,43.35]]],[[[-70.95,42.7],[-70.95,42.93918807077663],[-70.93901041666668,42.82161458333381],[-70.9161979166667,42.740260416667226],[-70.88232967883012,42.7],[-70.95,42.7]]],[[[-70.84223958333344,42.81880208333382],[-70.84197916666676,42.819427083333814],[-70.84052083333343,42.81989583333382],[-70.84020833333344,42.82093750000048],[-70.83916666666677,42.82125000000048],[-70.83473958333343,42.820260416667146],[-70.83390625000011,42.81942708333382],[-70.8335937500001,42.81723958333382],[-70.83291666666678,42.81677083333382],[-70.83375000000011,42.81593750000049],[-70.8329687500001,42.81526041666715],[-70.83302083333344,42.81473958333382],[-70.83458333333344,42.81427083333382],[-70.83427083333345,42.813802083333826],[-70.83322916666678,42.81359375000049],[-70.83291666666678,42.81281250000049],[-70.83390625000011,42.8089062500005],[-70.83442708333344,42.80880208333383],[-70.83510416666678,42.809583333333826],[-70.83552083333343,42.80890625000049],[-70.83697916666677,42.80859375000049],[-70.83703125000011,42.80807291666716],[-70.8362500000001,42.80739583333383],[-70.83760416666678,42.80697916666716],[-70.83791666666677,42.80645833333383],[-70.83776041666677,42.80552083333383],[-70.8362500000001,42.8040625000005],[-70.83692708333344,42.8035937500005],[-70.83723958333344,42.801406250000504],[-70.83822916666676,42.800572916667164],[-70.84197916666677,42.800468750000505],[-70.84317708333343,42.8010937500005],[-70.84682291666675,42.8017187500005],[-70.84723958333343,42.8035937500005],[-70.84786458333343,42.804218750000494],[-70.84786458333343,42.80578125000049],[-70.8460937500001,42.80786458333383],[-70.8454687500001,42.80807291666716],[-70.84557291666677,42.808697916667164],[-70.8460937500001,42.808697916667164],[-70.84739583333342,42.80708333333383],[-70.84885416666675,42.80859375000049],[-70.85010416666677,42.80864583333383],[-70.85036458333343,42.80739583333383],[-70.84963541666676,42.806927083333825],[-70.84963541666676,42.80640625000049],[-70.85057291666675,42.80557291666716],[-70.85276041666675,42.80526041666716],[-70.8534375000001,42.80458333333383],[-70.85473958333341,42.80609375000049],[-70.85661458333342,42.80630208333383],[-70.85739583333343,42.8070312500005],[-70.85864583333341,42.807239583333825],[-70.85942708333341,42.808072916667165],[-70.85989583333343,42.81026041666716],[-70.86114583333341,42.810885416667155],[-70.86119791666675,42.81244791666715],[-70.86057291666675,42.81307291666716],[-70.86026041666675,42.81494791666715],[-70.85838541666675,42.81552083333382],[-70.85760416666676,42.81697916666715],[-70.8565625000001,42.817135416667156],[-70.85598958333341,42.81776041666715],[-70.85286458333343,42.817812500000485],[-70.85161458333343,42.81635416666715],[-70.85005208333342,42.816302083333824],[-70.84958333333343,42.81677083333382],[-70.85036458333343,42.817239583333816],[-70.85026041666676,42.81776041666715],[-70.84838541666676,42.81786458333382],[-70.84739583333342,42.81708333333382],[-70.8468750000001,42.81776041666715],[-70.84395833333343,42.81807291666715],[-70.84380208333343,42.81859375000048],[-70.8445312500001,42.81890625000048],[-70.84447916666676,42.819427083333814],[-70.84322916666677,42.81953125000049],[-70.84276041666676,42.81880208333382],[-70.84223958333344,42.81880208333382]]],[[[-70.87197916666673,43.0877604166669],[-70.87072916666675,43.08786458333358],[-70.8698958333334,43.087083333333574],[-70.86937500000008,43.08843750000024],[-70.86833333333341,43.08875000000024],[-70.86390625000007,43.0877604166669],[-70.86307291666675,43.08692708333358],[-70.86276041666675,43.08473958333358],[-70.86208333333342,43.08406250000024],[-70.86276041666675,43.08364583333358],[-70.86296875000008,43.08239583333358],[-70.86369791666675,43.08177083333358],[-70.86369791666675,43.08072916666691],[-70.86322916666674,43.08041666666691],[-70.86281250000008,43.08109375000024],[-70.86187500000008,43.081250000000246],[-70.86057291666675,43.08036458333358],[-70.85973958333342,43.079427083333584],[-70.85953125000009,43.07755208333358],[-70.85880208333342,43.07677083333358],[-70.85859375000008,43.075520833333584],[-70.85796875000008,43.075260416666914],[-70.85796875000008,43.07473958333358],[-70.85859375000008,43.074531250000256],[-70.86052083333341,43.072239583333584],[-70.86197916666674,43.071927083333584],[-70.86192708333341,43.07140625000025],[-70.86005208333341,43.071197916666925],[-70.85911458333342,43.07046875000026],[-70.85755208333342,43.07046875000026],[-70.85677083333343,43.071197916666925],[-70.85552083333341,43.07140625000025],[-70.85437500000009,43.07276041666692],[-70.85145833333343,43.07276041666692],[-70.85109375000009,43.072239583333584],[-70.84890625000008,43.07177083333359],[-70.84859375000009,43.07052083333359],[-70.84796875000009,43.07026041666692],[-70.84796875000009,43.069739583333586],[-70.84869791666677,43.06927083333359],[-70.84859375000009,43.06802083333359],[-70.84807291666677,43.06796875000026],[-70.84744791666677,43.06869791666693],[-70.84557291666675,43.068593750000254],[-70.8454687500001,43.06807291666692],[-70.84619791666677,43.06776041666692],[-70.8460937500001,43.06713541666693],[-70.84473958333344,43.067864583333595],[-70.8445312500001,43.06723958333359],[-70.8429687500001,43.066093750000256],[-70.8429687500001,43.06557291666692],[-70.8437500000001,43.064895833333594],[-70.84291666666677,43.06406250000026],[-70.8437500000001,43.06322916666693],[-70.84307291666677,43.062968750000266],[-70.84239583333343,43.06375000000026],[-70.84208333333343,43.06250000000026],[-70.84239583333343,43.06041666666693],[-70.84307291666677,43.061197916666934],[-70.8437500000001,43.060937500000264],[-70.84291666666677,43.0598958333336],[-70.8437500000001,43.059062500000266],[-70.84291666666677,43.05822916666693],[-70.8462500000001,43.057604166666934],[-70.8454687500001,43.0569270833336],[-70.8454687500001,43.056406250000265],[-70.8460937500001,43.05619791666694],[-70.84723958333342,43.0547395833336],[-70.84911458333343,43.05463541666694],[-70.85010416666677,43.055416666666936],[-70.85036458333343,43.0547395833336],[-70.84958333333343,43.05406250000027],[-70.85161458333343,43.05380208333361],[-70.85239583333343,43.054531250000274],[-70.8534375000001,43.05468750000027],[-70.85406250000008,43.05625000000027],[-70.85489583333343,43.05546875000027],[-70.8559375000001,43.05546875000027],[-70.8565625000001,43.05619791666694],[-70.85781250000008,43.056406250000265],[-70.85802083333341,43.0569270833336],[-70.85947916666674,43.0572395833336],[-70.86140625000007,43.059427083333595],[-70.86328125000009,43.05953125000027],[-70.86427083333342,43.058750000000266],[-70.86484375000008,43.059427083333595],[-70.8684895833334,43.059739583333595],[-70.86921875000007,43.0603645833336],[-70.87109375000007,43.06057291666693],[-70.87171875000007,43.061197916666934],[-70.87328125000008,43.061197916666934],[-70.87427083333341,43.06041666666693],[-70.87468750000006,43.06109375000026],[-70.87562500000007,43.061250000000264],[-70.87640625000006,43.06057291666693],[-70.87781250000006,43.06041666666693],[-70.87927083333341,43.061250000000264],[-70.87968750000006,43.0598958333336],[-70.88062500000007,43.0595833333336],[-70.88343750000007,43.061250000000264],[-70.88385416666672,43.06057291666693],[-70.88531250000005,43.06010416666693],[-70.88557291666672,43.059062500000266],[-70.88697916666672,43.058750000000266],[-70.88838541666672,43.05953125000027],[-70.89026041666672,43.059739583333595],[-70.89192708333339,43.06140625000027],[-70.89203125000006,43.06328125000026],[-70.89125000000006,43.064270833333595],[-70.89192708333339,43.064531250000265],[-70.89260416666673,43.06375000000026],[-70.89286458333339,43.065781250000256],[-70.89213541666672,43.066718750000256],[-70.89192708333339,43.06859375000026],[-70.89057291666673,43.06984375000026],[-70.89046875000005,43.07296875000025],[-70.89125000000006,43.07479166666692],[-70.89046875000005,43.075885416666914],[-70.89026041666672,43.07776041666692],[-70.8897395833334,43.077864583333586],[-70.8892708333334,43.07708333333358],[-70.88880208333339,43.07739583333358],[-70.88880208333339,43.07843750000025],[-70.88953125000006,43.07906250000025],[-70.88942708333339,43.08031250000025],[-70.88843750000007,43.081250000000246],[-70.88739583333339,43.08041666666691],[-70.88682291666672,43.08177083333358],[-70.8831770833334,43.08239583333358],[-70.88260416666674,43.08364583333358],[-70.88156250000007,43.08380208333358],[-70.88078125000007,43.084531250000246],[-70.87890625000006,43.08473958333357],[-70.87848958333339,43.085260416666905],[-70.87484375000007,43.085260416666905],[-70.87463541666673,43.08473958333357],[-70.87541666666674,43.08406250000024],[-70.87385416666675,43.083750000000244],[-70.87307291666673,43.08437500000024],[-70.87276041666674,43.08687500000024],[-70.87197916666673,43.0877604166669]],[[-70.87625000000007,43.06625000000026],[-70.87625000000007,43.06541666666693],[-70.87541666666674,43.06541666666693],[-70.87541666666674,43.06625000000026],[-70.87625000000007,43.06625000000026]],[[-70.86208333333342,43.06958333333359],[-70.86208333333342,43.06875000000026],[-70.86125000000008,43.06875000000026],[-70.86125000000008,43.06958333333359],[-70.86208333333342,43.06958333333359]],[[-70.88958333333339,43.07041666666692],[-70.88958333333339,43.06958333333359],[-70.88875000000006,43.06958333333359],[-70.88875000000006,43.07041666666692],[-70.88958333333339,43.07041666666692]],[[-70.88791666666673,43.07041666666692],[-70.88791666666673,43.06958333333359],[-70.8870833333334,43.06958333333359],[-70.8870833333334,43.07041666666692],[-70.88791666666673,43.07041666666692]],[[-70.87875000000007,43.07375000000025],[-70.87875000000007,43.07291666666692],[-70.8770833333334,43.07291666666692],[-70.8770833333334,43.07375000000025],[-70.87875000000007,43.07375000000025]],[[-70.87625000000007,43.07541666666692],[-70.87625000000007,43.07375000000025],[-70.87541666666674,43.07375000000025],[-70.87541666666674,43.07541666666692],[-70.87625000000007,43.07541666666692]],[[-70.87541666666674,43.07708333333358],[-70.87541666666674,43.07625000000025],[-70.8745833333334,43.07625000000025],[-70.8745833333334,43.07708333333358],[-70.87541666666674,43.07708333333358]],[[-70.87375000000007,43.08041666666691],[-70.87375000000007,43.07958333333358],[-70.87125000000007,43.07958333333358],[-70.87125000000007,43.08041666666691],[-70.87375000000007,43.08041666666691]]],[[[-70.86677083333342,43.12614583333354],[-70.86572916666675,43.12630208333354],[-70.86531250000007,43.126927083333534],[-70.86406250000009,43.127135416666874],[-70.86312500000008,43.12791666666687],[-70.86218750000008,43.12776041666687],[-70.86161458333342,43.127135416666874],[-70.85973958333341,43.126927083333534],[-70.85890625000009,43.12609375000021],[-70.85791666666675,43.12218750000021],[-70.85822916666676,43.12140625000021],[-70.85947916666674,43.121093750000206],[-70.85953125000009,43.12057291666687],[-70.8584375000001,43.11963541666688],[-70.85718750000008,43.11942708333354],[-70.85640625000009,43.118645833333545],[-70.8559375000001,43.11708333333355],[-70.85489583333342,43.11791666666688],[-70.85406250000008,43.11708333333355],[-70.85359375000009,43.113177083333554],[-70.85291666666676,43.112604166666884],[-70.85369791666676,43.11177083333355],[-70.8539062500001,43.11052083333355],[-70.8545312500001,43.110104166666886],[-70.8545312500001,43.10906250000022],[-70.8539062500001,43.108593750000225],[-70.85375000000009,43.10718750000022],[-70.85458333333342,43.10520833333356],[-70.85380208333342,43.104114583333555],[-70.85359375000009,43.102239583333564],[-70.85291666666676,43.10156250000023],[-70.85359375000009,43.10114583333356],[-70.85385416666675,43.09989583333356],[-70.85510416666676,43.09927083333356],[-70.85572916666675,43.09458333333357],[-70.85890625000008,43.09140625000023],[-70.85968750000009,43.09125000000024],[-70.86359375000008,43.09239583333357],[-70.86473958333342,43.09531250000023],[-70.86541666666675,43.0957291666669],[-70.86463541666674,43.09671875000023],[-70.86463541666674,43.09828125000023],[-70.86541666666675,43.09927083333356],[-70.86473958333342,43.099791666666896],[-70.86463541666674,43.10229166666689],[-70.86510416666675,43.10291666666689],[-70.86593750000009,43.10208333333356],[-70.86625000000008,43.10416666666689],[-70.86593750000009,43.10541666666689],[-70.86526041666674,43.104635416666895],[-70.86473958333342,43.10473958333356],[-70.86458333333341,43.10614583333356],[-70.8648958333334,43.107083333333556],[-70.86593750000009,43.10625000000022],[-70.86625000000008,43.108333333333555],[-70.86593750000009,43.10958333333355],[-70.86526041666674,43.10880208333356],[-70.86473958333342,43.108906250000224],[-70.86463541666674,43.110781250000215],[-70.86510416666675,43.11125000000022],[-70.86557291666675,43.11046875000022],[-70.86609375000008,43.11062500000022],[-70.86619791666675,43.11312500000022],[-70.86541666666675,43.11427083333355],[-70.86786458333341,43.11640625000021],[-70.86786458333341,43.11692708333354],[-70.86708333333341,43.11760416666688],[-70.86869791666675,43.11890625000021],[-70.86869791666675,43.11942708333354],[-70.86791666666674,43.12010416666688],[-70.86859375000007,43.12052083333354],[-70.86890625000008,43.121979166666875],[-70.86958333333341,43.12239583333354],[-70.8688020833334,43.123229166666874],[-70.8686458333334,43.12427083333354],[-70.86718750000007,43.12489583333354],[-70.86677083333342,43.12614583333354]],[[-70.86541666666675,43.116250000000214],[-70.86541666666675,43.11541666666688],[-70.86458333333341,43.11541666666688],[-70.86458333333341,43.116250000000214],[-70.86541666666675,43.116250000000214]]]]}}]}