{"type": "FeatureCollection", "features": [{"type": "Feature", "id": "salisbury-ma", "properties": {"id": "salisbury-ma", "name": "Salisbury Beach", "state": "MA", "facing": 90}, "geometry": {"type": "Point", "coordinates": [-70.81, 42.83]}}, {"type": "Feature", "id": "seabrook-nh", "properties": {"id": "seabrook-nh", "name": "Seabrook Beach", "state": "NH", "facing": 95.0}, "geometry": {"type": "Point", "coordinates": [-70.815, 42.88]}}, {"type": "Feature", "id": "hampton-beach-nh", "properties": {"id": "hampton-beach-nh", "name": "Hampton Beach", "state": "NH", "facing": 100.0}, "geometry": {"type": "Point", "coordinates": [-70.807, 42.904]}}, {"type": "Feature", "id": "the-wall-nh", "properties": {"id": "the-wall-nh", "name": "The Wall (North Beach)", "state": "NH", "facing": 115.0}, "geometry": {"type": "Point", "coordinates": [-70.801, 42.923]}}, {"type": "Feature", "id": "plaice-cove-nh", "properties": {"id": "plaice-cove-nh", "name": "Plaice Cove", "state": "NH", "facing": 110.0}, "geometry": {"type": "Point", "coordinates": [-70.791, 42.941]}}, {"type": "Feature", "id": "jenness-nh", "properties": {"id": "jenness-nh", "name": "Jenness State Beach", "state": "NH", "facing": 110}, "geometry": {"type": "Point", "coordinates": [-70.768, 42.968]}}, {"type": "Feature", "id": "rye-rocks-nh", "properties": {"id": "rye-rocks-nh", "name": "Rye Rocks", "state": "NH", "facing": 100.0}, "geometry": {"type": "Point", "coordinates": [-70.76, 42.98]}}, {"type": "Feature", "id": "wallis-sands-nh", "properties": {"id": "wallis-sands-nh", "name": "Wallis Sands", "state": "NH", "facing": 120.0}, "geometry": {"type": "Point", "coordinates": [-70.733, 43.02]}}, {"type": "Feature", "id": "long-sands-me", "properties": {"id": "long-sands-me", "name": "Long Sands", "state": "ME", "facing": 135.0}, "geometry": {"type": "Point", "coordinates": [-70.615, 43.163]}}, {"type": "Feature", "id": "ogunquit-me", "properties": {"id": "ogunquit-me", "name": "Ogunquit Rivermouth", "state": "ME", "facing": 120.0}, "geometry": {"type": "Point", "coordinates": [-70.592, 43.248]}}, {"type": "Feature", "id": "wells-me", "properties": {"id": "wells-me", "name": "Wells Beach", "state": "ME", "facing": 105.0}, "geometry": {"type": "Point", "coordinates": [-70.56, 43.312]}}, {"type": "Feature", "id": "goochs-me", "properties": {"id": "goochs-me", "name": "Gooch's Beach", "state": "ME", "facing": 175.0}, "geometry": {"type": "Point", "coordinates": [-70.485, 43.344]}}, {"type": "Feature", "id": "fortunes-rocks-me", "properties": {"id": "fortunes-rocks-me", "name": "Fortunes Rocks", "state": "ME", "facing": 110.0}, "geometry": {"type": "Point", "coordinates": [-70.382, 43.411]}}, {"type": "Feature", "id": "old-orchard-me", "properties": {"id": "old-orchard-me", "name": "Old Orchard Beach", "state": "ME", "facing": 120}, "geometry": {"type": "Point", "coordinates": [-70.377, 43.517]}}, {"type": "Feature", "id": "higgins-me", "properties": {"id": "higgins-me", "name": "Higgins Beach", "state": "ME", "facing": 175.0}, "geometry": {"type": "Point", "coordinates": [-70.275, 43.562]}}]}